,citing author name,citing paper title,cited paper title,affiliation,latitude,longitude,county,city,state,country
0,Alhussein Abouzeid,Privacy-aware Deep Learning based Localization of Spectrum Violators,DeepMTL Pro: Deep Learning Based Multiple Transmitter Localization and Power Estimation,ECSE,47.4242549,20.9761618,Jász-Nagykun-Szolnok,,,Hungary
1,Xiaojie Fan,Distribution and purification of entanglement states in quantum networks,Simulation of Entanglement-Enabled Connectivity in QLANs using SeQUeNCe,Stony Brook University,40.9090809,-73.12055180275716,Suffolk County,,New York,United States
2,David Leibrandt,Quantum entanglement enables single-shot trajectory sensing for weakly interacting particles,Discrete Outcome Quantum Sensor Networks,Los Angeles,34.0536909,-118.242766,Los Angeles County,Los Angeles,California,United States
3,Dianqi Han,SpecKriging: GNN-based secure cooperative spectrum sensing,Selection of Sensors for Efficient Transmitter Localization,University of Texas at Arlington,32.728471299999995,-97.11202127009975,Tarrant County,Arlington,Texas,United States
4,Himanshu Gupta,Quantum sensor network algorithms for transmitter localization,Efficient Quantum Network Communication Using Optimized Entanglement Swapping Trees,Stony Brook University,40.9090809,-73.12055180275716,Suffolk County,,New York,United States
5,Allen Zang,Design and Simulation of the Adaptive Continuous Entanglement Generation Protocol,Efficient Quantum Network Communication Using Optimized Entanglement Swapping Trees,University of Chicago,41.79139685,-87.60084387193544,Cook County,Chicago,Illinois,United States
6,Allen Zang,Design and Simulation of the Adaptive Continuous Entanglement Generation Protocol,Optimizing Initial State of Detector Sensors in Quantum Sensor Networks,University of Chicago,41.79139685,-87.60084387193544,Cook County,Chicago,Illinois,United States
7,Calin Bira,Close-range indoor transmitter localization using a system of low-cost SDR receivers,Efficient Localization of Multiple Intruders in Shared Spectrum System,University Politehnica of Bucharest,44.439367950000005,26.050603266436525,,Bucharest,,Romania
8,C.R. Ramakrishnan,Distribution and purification of entanglement states in quantum networks,Efficient Quantum Network Communication Using Optimized Entanglement Swapping Trees,Stony Brook University,40.9090809,-73.12055180275716,Suffolk County,,New York,United States
10,Arani Bhattacharya,Fast and efficient online selection of sensors for transmitter localization,Efficient Localization of Multiple Intruders in Shared Spectrum System,IIIT-Delhi,28.54632595,77.27325504180786,Kalkaji Tehsil,New Delhi,Delhi,India
11,Himanshu Gupta,Quantum sensor network algorithms for transmitter localization,Optimizing Initial State of Detector Sensors in Quantum Sensor Networks,Stony Brook University,40.9090809,-73.12055180275716,Suffolk County,,New York,United States
12,No_author_found,Time series modeling for heart rate prediction: From arima to transformers,DeepMTL Pro: Deep Learning Based Multiple Transmitter Localization and Power Estimation,No_author_found,,,,,,
13,Himanshu Gupta,Optimized distribution of entanglement graph states in quantum networks,Quantum Sensor Network Algorithms for Transmitter Localization,Stony Brook University,40.9090809,-73.12055180275716,Suffolk County,,New York,United States
14,No_author_found, Deep Learning-Based Transmitter Localization in Sparse Wireless Sensor Networks,DeepMTL Pro: Deep Learning Based Multiple Transmitter Localization and Power Estimation,No_author_found,,,,,,
15,Himanshu Gupta,Optimized distribution of entanglement graph states in quantum networks,Design and Simulation of the Adaptive Continuous Entanglement Generation Protocol,Stony Brook University,40.9090809,-73.12055180275716,Suffolk County,,New York,United States
16,Yubo Luo,Scaling Up Task Execution on Resource-Constrained Systems,DeepAlloc: Deep Learning Approach to Spectrum Allocation in Shared Spectrum Systems,University of North Carolina at Chapel Hill,35.90503535,-79.04775326525107,Orange County,Chapel Hill,North Carolina,United States
17,Michelle Victora,Entanglement purification on quantum networks,Efficient Quantum Network Communication Using Optimized Entanglement Swapping Trees,University of Illinois at Urbana-Champaign,40.090629199999995,-88.17641799034426,Champaign County,Urbana,Illinois,United States
18,Chengjie Mou,Fineehr: Refine clinical note representations to improve mortality prediction,DeepMTL Pro: Deep Learning Based Multiple Transmitter Localization and Power Estimation,Trine University,41.63111405,-85.0105982174732,Steuben County,,Indiana,United States
19,Neal Patwari,Learning-based techniques for transmitter localization: A case study on model robustness,DeepMTL Pro: Deep Learning Based Multiple Transmitter Localization and Power Estimation,University of Utah,40.762813699999995,-111.83687191368261,Salt Lake County,Salt Lake City,Utah,United States
20,Caitao Zhan,Optimizing initial state of detector sensors in quantum sensor networks,Discrete Outcome Quantum Sensor Networks,Argonne National Lab,41.7177843,-87.9781814,DuPage County,,Illinois,United States
21,No_author_found,Experimental demonstration of wave source location estimation method for spectrum sharing in 28-GHz-band 5G system,DeepMTL Pro: Deep Learning Based Multiple Transmitter Localization and Power Estimation,No_author_found,,,,,,
22,José Mairton Barros da Silva Jr.,Machine Learning for Spectrum Sharing: A Survey,DeepAlloc: Deep Learning Approach to Spectrum Allocation in Shared Spectrum Systems,Uppsala University,59.8593087,17.6366551,Uppsala County,Uppsala,,Sweden
23,Jun Zhuang,Improving trainability of variational quantum circuits via regularization strategies,Quantum Sensor Network Algorithms for Transmitter Localization,Boise State University,43.6031707,-116.20261074563308,Ada County,Boise,Idaho,United States
24,Qingrui Pan,Understanding localization by a tailored GPT,DeepMTL: Deep Learning Based Multiple Transmitter Localization,The Hong Kong Polytechnic University,22.304486699999998,114.17969345847592,,Kowloon,Hong Kong,China
25,Bruno Coutinho,Entanglement routing based on fidelity curves for quantum photonics channels,Efficient Quantum Network Communication Using Optimized Entanglement Swapping Trees,IT,42.6384261,12.674297,Terni,Terni,Umbria,Italy
26,Suzan Bayhan,Deeptxfinder: Multiple transmitter localization by deep learning in crowdsourced spectrum sensing,Efficient Localization of Multiple Intruders in Shared Spectrum System,University of Twente,52.2493304,6.8511958,,Enschede,Overijssel,Netherlands
27,Serhat Tadik,Digital spectrum twins for enhanced spectrum sharing and other radio applications,Efficient Localization of Multiple Intruders in Shared Spectrum System,Georgia Tech,33.776094799999996,-84.3988076699857,Fulton County,Atlanta,Georgia,United States
28,Adrian Cottam,A transfer learning framework for proactive ramp metering performance assessment,DeepMTL Pro: Deep Learning Based Multiple Transmitter Localization and Power Estimation,Auburn University,32.59195285,-85.49597748562812,Lee County,Auburn,Alabama,United States
29,Frost Mitchell,Reliable Wireless Localization Through Learning and Augmentation,DeepMTL Pro: Deep Learning Based Multiple Transmitter Localization and Power Estimation,University of Utah,40.762813699999995,-111.83687191368261,Salt Lake County,Salt Lake City,Utah,United States
30,Caitao Zhan,Deepmtl pro: Deep learning based multiple transmitter localization and power estimation,Selection of Sensors for Efficient Transmitter Localization,Argonne National Lab,41.7177843,-87.9781814,DuPage County,,Illinois,United States
31,"Jugal Talukdar, Ph. D.",Efficient Multiparty Entanglement Distribution with DODAG-X Protocol,Optimized distribution of entanglement graph states in quantum networks,University of California,37.875499649999995,-122.23906851395179,Alameda County,Berkeley,California,United States
32,Zongxing Xie,Wireless Sensing for Home-Based Health Monitoring With Robustness and Scalability,DeepMTL Pro: Deep Learning Based Multiple Transmitter Localization and Power Estimation,Kennesaw State University,34.03834515,-84.58310525598046,Cobb County,,Georgia,United States
33,Caitao Zhan,Simulation of Entanglement-Enabled Connectivity in QLANs using SeQUeNCe,Discrete Outcome Quantum Sensor Networks,Argonne National Lab,41.7177843,-87.9781814,DuPage County,,Illinois,United States
34,Nenghai Yu,Efficient Routing Design Based on Entanglement Flow Loss Effect in Quantum Networks,Efficient Quantum Network Communication Using Optimized Entanglement Swapping Trees,University of Science,51.51459765,-0.11642199104621423,,London,England,United Kingdom
35,Zhepeng Wang,Pristiq: A co-design framework for preserving data security of quantum learning in the cloud,Optimizing Initial State of Detector Sensors in Quantum Sensor Networks,George Mason University,38.83133325,-77.30798838879116,Fairfax County,,Virginia,United States
37,"Joaquin Chung, PhD",Quantum Advantage in Distributed Sensing with Noisy Quantum Networks,Optimized distribution of entanglement graph states in quantum networks,Argonne National Laboratory,41.70914095,-87.9786221366494,DuPage County,,Illinois,United States
38,Himanshu Gupta,Distribution and purification of entanglement states in quantum networks,Design and Simulation of the Adaptive Continuous Entanglement Generation Protocol,Stony Brook University,40.9090809,-73.12055180275716,Suffolk County,,New York,United States
39,Neal Patwari,Deep learning-based localization in limited data regimes,DeepMTL Pro: Deep Learning Based Multiple Transmitter Localization and Power Estimation,University of Utah,40.762813699999995,-111.83687191368261,Salt Lake County,Salt Lake City,Utah,United States
40,Obadah Habash,Multiple source localization in IoT: a conditional GAN and image-processing-based framework,DeepMTL Pro: Deep Learning Based Multiple Transmitter Localization and Power Estimation,Khalifa University,24.4479513,54.39552668551741,Abu Dhabi,Abu Dhabi,Abu Dhabi Emirate,United Arab Emirates
41,Stefan Krastanov,Entanglement purification on quantum networks,Efficient Quantum Network Communication Using Optimized Entanglement Swapping Trees,University of Massachusetts Amherst,42.386969300000004,-72.53018467326824,Hampshire County,,Massachusetts,United States
42,Ti Zhou,Data-driven Software-based Power Estimation for Embedded Devices,DeepMTL: Deep Learning Based Multiple Transmitter Localization,Stony Brook University,40.9090809,-73.12055180275716,Suffolk County,,New York,United States
43,Ravi Kishore Devarapalli,Locating multiple rumor sources in social networks using partial information of monitors,Quantum Sensor Network Algorithms for Transmitter Localization,Research Scholar,19.135314700000002,72.91845578360872,,Mumbai,Maharashtra,India
44,David Leibrandt,Quantum entanglement enables single-shot trajectory sensing for weakly interacting particles,Discrete Outcome Quantum Sensor Networks,"University of California, Los Angeles",34.070877749999994,-118.44685031405575,Los Angeles County,Los Angeles,California,United States
45,Nenghai Yu,Redp: Reliable entanglement distribution protocol design for large-scale quantum networks,Efficient Quantum Network Communication Using Optimized Entanglement Swapping Trees,University of Science,51.51459765,-0.11642199104621423,,London,England,United Kingdom
46,Yifei Min,Cooperative multi-agent reinforcement learning: asynchronous communication and linear function approximation,DeepMTL Pro: Deep Learning Based Multiple Transmitter Localization and Power Estimation,Yale University,41.25713055,-72.98966960152231,South Central Connecticut Planning Region,,Connecticut,United States
47,Hang Zhao,Model Touch Pointing and Detect Parkinson's Disease via a Mobile Game,Efficient Localization of Multiple Intruders in Shared Spectrum System,Stony Brook University,40.9090809,-73.12055180275716,Suffolk County,,New York,United States
48,Caitao Zhan,Deepmtl pro: Deep learning based multiple transmitter localization and power estimation,DeepMTL: Deep Learning Based Multiple Transmitter Localization,Argonne National Lab,41.7177843,-87.9781814,DuPage County,,Illinois,United States
50,Zhonghui Li,Efficient Routing Design Based on Entanglement Flow Loss Effect in Quantum Networks,Efficient Quantum Network Communication Using Optimized Entanglement Swapping Trees,Technology of China,31.8403891,117.2501941133908,,Shushan District,Anhui,China
51,Amin Zare,VIA: Establishing the link between spectrum sensor capabilities and data analytics performance,Selection of Sensors for Efficient Transmitter Localization,KU Leuven,50.80571285,3.2915374489139757,Kortrijk,Kortrijk,West Flanders,Belgium
52,Jiawei Li,SpecKriging: GNN-based secure cooperative spectrum sensing,Selection of Sensors for Efficient Transmitter Localization,Arizona State University,33.4213174,-111.93316305413154,Maricopa County,Tempe,Arizona,United States
53,Zhizun Xu, Advancements in Sensor Fusion for Underwater SLAM: A Review on Enhanced Navigation and Environmental Perception,Quantum Sensor Network Algorithms for Transmitter Localization,Research Associate,38.791182000000006,-89.9902208884049,Madison County,Edwardsville,Illinois,United States
54,Xiao Lin,Task-agnostic detector for insertion-based backdoor attacks,DeepMTL Pro: Deep Learning Based Multiple Transmitter Localization and Power Estimation,SRI International,37.45648105,-122.17539244060208,San Mateo County,,California,United States
55,Alhussein Abouzeid,Privacy-aware Deep Learning based Localization of Spectrum Violators,DeepMTL: Deep Learning Based Multiple Transmitter Localization,ECSE,47.4242549,20.9761618,Jász-Nagykun-Szolnok,,,Hungary
56,Frost Mitchell,Exploring adversarial attacks on learning-based localization,DeepMTL Pro: Deep Learning Based Multiple Transmitter Localization and Power Estimation,University of Utah,40.762813699999995,-111.83687191368261,Salt Lake County,Salt Lake City,Utah,United States
57,Alhussein Abouzeid,Privacy-aware Deep Learning based Localization of Spectrum Violators,Efficient Localization of Multiple Intruders in Shared Spectrum System,ECSE,47.4242549,20.9761618,Jász-Nagykun-Szolnok,,,Hungary
58,Yao-Jan Wu,On-ramp and off-ramp traffic flows estimation based on a data-driven transfer learning framework,DeepMTL Pro: Deep Learning Based Multiple Transmitter Localization and Power Estimation,University of Arizona,32.235692799999995,-110.95174399590185,Pima County,Tucson,Arizona,United States
59,Caitao Zhan,Design and Simulation of the Adaptive Continuous Entanglement Generation Protocol,Simulation of Quantum Transduction Strategies for Quantum Networks,Argonne National Lab,41.7177843,-87.9781814,DuPage County,,Illinois,United States
60,Himanshu Gupta,Distributing quantum circuits using teleportations,Discrete Outcome Quantum Sensor Networks,Stony Brook University,40.9090809,-73.12055180275716,Suffolk County,,New York,United States
61,Hang Ren,Spacepulse: Combining parameterized pulses and contextual subspace for more practical vqe,Quantum Sensor Network Algorithms for Transmitter Localization,UC Berkeley,37.875499649999995,-122.23906851395179,Alameda County,Berkeley,California,United States
62,Wan Du,OrchLoc: In-orchard localization via a single LoRa gateway and generative diffusion model-based fingerprinting,DeepMTL: Deep Learning Based Multiple Transmitter Localization,UC Merced,37.365182,-120.42252751958962,Merced County,Merced,California,United States
63,Alvin Gonzales,Quantum Advantage in Distributed Sensing with Noisy Quantum Networks,Optimized distribution of entanglement graph states in quantum networks,Argonne National Laboratory,41.70914095,-87.9786221366494,DuPage County,,Illinois,United States
64,Zachary Chin,The quantum trajectory sensing problem and its solution,Discrete Outcome Quantum Sensor Networks,MIT,42.3582529,-71.0966272383055,Middlesex County,Cambridge,Massachusetts,United States
65,Allen Zang,Design and Simulation of the Adaptive Continuous Entanglement Generation Protocol,Quantum Sensor Network Algorithms for Transmitter Localization,University of Chicago,41.79139685,-87.60084387193544,Cook County,Chicago,Illinois,United States
66,Frost Mitchell,Learning-based techniques for transmitter localization: A case study on model robustness,DeepMTL Pro: Deep Learning Based Multiple Transmitter Localization and Power Estimation,University of Utah,40.762813699999995,-111.83687191368261,Salt Lake County,Salt Lake City,Utah,United States
67,Yubo Luo,Scaling Up Task Execution on Resource-Constrained Systems,Quantum Sensor Network Algorithms for Transmitter Localization,Chapel Hill,35.9131542,-79.05578,Orange County,Chapel Hill,North Carolina,United States
68,Michael A. Varner,Digital spectrum twins for enhanced spectrum sharing and other radio applications,Efficient Localization of Multiple Intruders in Shared Spectrum System,Georgia Institute of Technology,33.776094799999996,-84.3988076699857,Fulton County,Atlanta,Georgia,United States
69,Himanshu Gupta,Distributed quantum computation with minimum circuit execution time over quantum networks,Efficient Quantum Network Communication Using Optimized Entanglement Swapping Trees,Stony Brook University,40.9090809,-73.12055180275716,Suffolk County,,New York,United States
70,Ji Liu,Multi-User Entanglement Routing Design over Quantum Internets,Efficient Quantum Network Communication Using Optimized Entanglement Swapping Trees,Stony Brook University,40.9090809,-73.12055180275716,Suffolk County,,New York,United States
71,Man Lin,Data-driven Software-based Power Estimation for Embedded Devices,DeepMTL: Deep Learning Based Multiple Transmitter Localization,St. Francis Xavier University,45.61752735,-61.99488302044932,Town of Antigonish,,Nova Scotia,Canada
72,Soumita Das,Locating multiple rumor sources in social networks using partial information of monitors,Quantum Sensor Network Algorithms for Transmitter Localization,National Institute of Technology Silchar,24.75522195,92.78744845272317,Silchar,,Assam,India
73,Wanyu Bian, A review of optimization-based deep learning models for mri reconstruction,DeepMTL: Deep Learning Based Multiple Transmitter Localization,Harvard Medical School,42.336831849999996,-71.10380921118058,Suffolk County,Boston,Massachusetts,United States
74,Jianfeng Wang,"Performant, scalable, and efficient deployment of network function virtualization",Near-optimal Multihop Scheduling in General Circuit-switched Networks,Inc.,38.321089,106.38857247478668,Lingwu City,Yinchuan City,Ningxia,China
75,Yiming Zeng,Multi-User Entanglement Routing Design over Quantum Internets,Efficient Quantum Network Communication Using Optimized Entanglement Swapping Trees,Binghamton University,42.08779975,-75.97066065614858,Broome County,City of Binghamton,New York,United States
76,Caitao Zhan,Deepmtl: Deep learning based multiple transmitter localization,Efficient Localization of Multiple Intruders in Shared Spectrum System,Argonne National Lab,41.7177843,-87.9781814,DuPage County,,Illinois,United States
77,Caitao Zhan,Transmitter Localization and Optimizing Initial State in Classical/Quantum Sensor Networks,Shape Formation in Games: A Probability-Based Evolutionary Approach,Argonne National Lab,41.7177843,-87.9781814,DuPage County,,Illinois,United States
78,Caitao Zhan,Transmitter Localization and Optimizing Initial State in Classical/Quantum Sensor Networks,Efficient Localization of Multiple Intruders in Shared Spectrum System,Argonne National Lab,41.7177843,-87.9781814,DuPage County,,Illinois,United States
79,Chibuikem Ezemaduka,Privacy-aware Deep Learning based Localization of Spectrum Violators,DeepMTL Pro: Deep Learning Based Multiple Transmitter Localization and Power Estimation,Rensselaer Polytechnic Institute,42.7298969,-73.67966781998861,Rensselaer County,City of Troy,New York,United States
80,Kanad Basu (কণাদ বসু),Pristiq: A co-design framework for preserving data security of quantum learning in the cloud,Optimizing Initial State of Detector Sensors in Quantum Sensor Networks,University of Texas at Dallas,32.9875855,-96.7497840266667,Dallas County,Richardson,Texas,United States
81,Hongli Xu,Dynamic Entanglement Routing Based on Stream Processing for Quantum Networks,Efficient Quantum Network Communication Using Optimized Entanglement Swapping Trees,University of Science,51.51459765,-0.11642199104621423,,London,England,United Kingdom
82,Francesco Mazza,Simulation of Entanglement-Enabled Connectivity in QLANs using SeQUeNCe,Discrete Outcome Quantum Sensor Networks,Scuola Normale Superiore di Pisa,43.719686249999995,10.400398048187082,Pisa,Pisa,Tuscany,Italy
83,Nicolas Dirnegger,Efficient Multiparty Entanglement Distribution with DODAG-X Protocol,Optimized distribution of entanglement graph states in quantum networks,UCLA,34.070877749999994,-118.44685031405575,Los Angeles County,Los Angeles,California,United States
84,Klaus-Tycho Foerster,A survey of reconfigurable optical networks,Near-optimal Multihop Scheduling in General Circuit-switched Networks,Computer Science,40.80899825,-73.95987847188215,New York County,New York,New York,United States
85,Yat Wong,Space-time Peer-to-Peer Distribution of Multi-party Entanglement for Any Quantum Network,Optimized distribution of entanglement graph states in quantum networks,University of Chicago,41.79139685,-87.60084387193544,Cook County,Chicago,Illinois,United States
86,Bin Huang, Probabilistic load forecasting for integrated energy systems using attentive quantile regression temporal convolutional network,DeepMTL: Deep Learning Based Multiple Transmitter Localization,Southern Methodist University,32.841801149999995,-96.78152810147064,Dallas County,,Texas,United States
87,Zongxing Xie,Wireless Sensing for Home-Based Health Monitoring With Robustness and Scalability,Optimized distribution of entanglement graph states in quantum networks,Kennesaw State University,34.03834515,-84.58310525598046,Cobb County,,Georgia,United States
88,Yuning Chen,OrchLoc: In-orchard localization via a single LoRa gateway and generative diffusion model-based fingerprinting,DeepMTL Pro: Deep Learning Based Multiple Transmitter Localization and Power Estimation,University of California,37.875499649999995,-122.23906851395179,Alameda County,Berkeley,California,United States
89,Ruozhou Yu,FENDI: Toward high-fidelity entanglement distribution in the quantum internet,Optimizing Initial State of Detector Sensors in Quantum Sensor Networks,NCSU,35.7397972,-78.6768825,Wake County,,North Carolina,United States
90,Jun-ichi Takada,"Maximum-likelihood-based location, orientation, transmitted power, and antenna beamwidth estimator utilizing the angle-of-arrival and received power for spectrum …",DeepMTL: Deep Learning Based Multiple Transmitter Localization,School of Environment,39.9967633,116.32849387797992,,Haidian District,Beijing,China
91,Han Guo, Probabilistic load forecasting for integrated energy systems using attentive quantile regression temporal convolutional network,DeepMTL Pro: Deep Learning Based Multiple Transmitter Localization and Power Estimation,SOUTHERN METHODIST UNIVERSITY,32.841801149999995,-96.78152810147064,Dallas County,,Texas,United States
92,Himanshu Gupta,Distribution and purification of entanglement states in quantum networks,Discrete Outcome Quantum Sensor Networks,Stony Brook University,40.9090809,-73.12055180275716,Suffolk County,,New York,United States
93,Himanshu Gupta,DeepAlloc: Deep Learning Approach to Spectrum Allocation in Shared Spectrum Systems,DeepMTL: Deep Learning Based Multiple Transmitter Localization,Stony Brook University,40.9090809,-73.12055180275716,Suffolk County,,New York,United States
94,Rajkumar Kettimuthu,Simulation of Quantum Transduction Strategies for Quantum Networks,Efficient Quantum Network Communication Using Optimized Entanglement Swapping Trees,University of Chicago,41.79139685,-87.60084387193544,Cook County,Chicago,Illinois,United States
95,Caitao Zhan,Simulation of Entanglement-Enabled Connectivity in QLANs using SeQUeNCe,Efficient Quantum Network Communication Using Optimized Entanglement Swapping Trees,Argonne National Lab,41.7177843,-87.9781814,DuPage County,,Illinois,United States
96,Mohammad Ghaderibaneh,Deepmtl pro: Deep learning based multiple transmitter localization and power estimation,Efficient Localization of Multiple Intruders in Shared Spectrum System,Stony Brook University,40.9090809,-73.12055180275716,Suffolk County,,New York,United States
97,Piotr Gawlowicz,Deeptxfinder: Multiple transmitter localization by deep learning in crowdsourced spectrum sensing,Efficient Localization of Multiple Intruders in Shared Spectrum System,TU Berlin,52.51101585,13.326954140959668,,Berlin,,Germany
98,Jun-ichi Takada,"Maximum-likelihood-based location, orientation, transmitted power, and antenna beamwidth estimator utilizing the angle-of-arrival and received power for spectrum …",Efficient Localization of Multiple Intruders in Shared Spectrum System,School of Environment,39.9967633,116.32849387797992,,Haidian District,Beijing,China
99,Frost Mitchell,Deep learning-based localization in limited data regimes,DeepMTL Pro: Deep Learning Based Multiple Transmitter Localization and Power Estimation,University of Utah,40.762813699999995,-111.83687191368261,Salt Lake County,Salt Lake City,Utah,United States
100,Xuesong Ye,Fineehr: Refine clinical note representations to improve mortality prediction,DeepMTL Pro: Deep Learning Based Multiple Transmitter Localization and Power Estimation,Georgia Institute of Technology,33.776094799999996,-84.3988076699857,Fulton County,Atlanta,Georgia,United States
101,Mengjie Zhou, Machine learning for advanced emission monitoring and reduction strategies in fossil fuel power plants,DeepAlloc: Deep Learning Approach to Spectrum Allocation in Shared Spectrum Systems,University of Bristol,51.4905582,-2.6304824978595356,North Somerset,,England,United Kingdom
102,Lutong Chen,Redp: Reliable entanglement distribution protocol design for large-scale quantum networks,Efficient Quantum Network Communication Using Optimized Entanglement Swapping Trees,University of Science and Technology of China,31.839071949999997,117.26420747857581,,Baohe District,Anhui,China
104,Hailu Xu, Fast Meta Failure Recovery for Federated Meta-Learning [Vision Paper],DeepMTL Pro: Deep Learning Based Multiple Transmitter Localization and Power Estimation,California State University,34.1799047,-117.3263,San Bernardino County,San Bernardino,California,United States
105,Jaya Prakash  Champati,Fast and efficient online selection of sensors for transmitter localization,DeepMTL: Deep Learning Based Multiple Transmitter Localization,University of Victoria,48.46205995,-123.31141980604804,Capital Regional District,,British Columbia,Canada
106,Syed Zawad,FedCust: Offloading hyperparameter customization for federated learning,DeepMTL: Deep Learning Based Multiple Transmitter Localization,IBM,48.7183588,21.2643753,,Košice,Region of Košice,Slovakia
107,"Joaquin Chung, PhD",Design and Simulation of the Adaptive Continuous Entanglement Generation Protocol,Discrete Outcome Quantum Sensor Networks,Argonne National Laboratory,41.70914095,-87.9786221366494,DuPage County,,Illinois,United States
108,Wan Du,OrchLoc: In-orchard localization via a single LoRa gateway and generative diffusion model-based fingerprinting,DeepMTL: Deep Learning Based Multiple Transmitter Localization,UC Merced,37.365182,-120.42252751958962,Merced County,Merced,California,United States
109,Yubo Luo,Scaling Up Task Execution on Resource-Constrained Systems,Selection of Sensors for Efficient Transmitter Localization,Chapel Hill,35.9131542,-79.05578,Orange County,Chapel Hill,North Carolina,United States
110,Zhonghui Li,Efficient Routing Design Based on Entanglement Flow Loss Effect in Quantum Networks,Efficient Quantum Network Communication Using Optimized Entanglement Swapping Trees,University of Science and Technology of China,31.839071949999997,117.26420747857581,,Baohe District,Anhui,China
111,Caitao Zhan,Quantum sensor network algorithms for transmitter localization,Discrete Outcome Quantum Sensor Networks,Argonne National Lab,41.7177843,-87.9781814,DuPage County,,Illinois,United States
112,Alhussein Abouzeid,Privacy-aware Deep Learning based Localization of Spectrum Violators,DeepMTL Pro: Deep Learning Based Multiple Transmitter Localization and Power Estimation,RPI,42.7298969,-73.67966781998861,Rensselaer County,City of Troy,New York,United States
113,Fabrice VAUSSENAT,A Residual Neural Network Approach to Transmitter Localization,DeepMTL Pro: Deep Learning Based Multiple Transmitter Localization and Power Estimation,ETS,22.2953008,114.1745998,,Kowloon,Hong Kong,China
114,Trung Q. Duong,Quantum-Inspired Resource Optimization for 6G Networks: A Survey,Efficient Quantum Network Communication Using Optimized Entanglement Swapping Trees,Memorial University,47.5732831,-52.7351911,,St. John's,Newfoundland and Labrador,Canada
115,Julio José Moyano-Fernández, No-go theorems for photon state transformations in quantum linear optics,Efficient Quantum Network Communication Using Optimized Entanglement Swapping Trees,Universitat Jaume I de Castelló,39.994311999999994,-0.07139616293945164,,Castelló de la Plana,Valencian Community,Spain
116,Xiaojian Wang,FENDI: Toward high-fidelity entanglement distribution in the quantum internet,Optimizing Initial State of Detector Sensors in Quantum Sensor Networks,North Carolina State University,35.77184965,-78.67408695452633,Wake County,Raleigh,North Carolina,United States
117,Yubo Luo,Scaling Up Task Execution on Resource-Constrained Systems,DeepMTL Pro: Deep Learning Based Multiple Transmitter Localization and Power Estimation,Chapel Hill,35.9131542,-79.05578,Orange County,Chapel Hill,North Carolina,United States
118,Rajkumar Kettimuthu,Simulation of Entanglement-Enabled Connectivity in QLANs using SeQUeNCe,Efficient Quantum Network Communication Using Optimized Entanglement Swapping Trees,University of Chicago,41.79139685,-87.60084387193544,Cook County,Chicago,Illinois,United States
119,Jaya Prakash  Champati,Fast and efficient online selection of sensors for transmitter localization,Selection of Sensors for Efficient Transmitter Localization,University of Victoria,48.46205995,-123.31141980604804,Capital Regional District,,British Columbia,Canada
120,"Pranjal Sahu, Ph.D",Deepmtl pro: Deep learning based multiple transmitter localization and power estimation,DeepMTL: Deep Learning Based Multiple Transmitter Localization,Siemens Healthineers,42.15018335,-71.20516148354095,Norfolk County,,Massachusetts,United States
121,Lei Yang,FedCust: Offloading hyperparameter customization for federated learning,DeepMTL: Deep Learning Based Multiple Transmitter Localization,University of Nevada,36.10782625,-115.14186110966509,Clark County,Las Vegas,Nevada,United States
122,Kanad Basu (কণাদ বসু),Pristiq: A co-design framework for preserving data security of quantum learning in the cloud,Optimizing Initial State of Detector Sensors in Quantum Sensor Networks,Dallas,32.7762719,-96.7968559,Dallas County,Dallas,Texas,United States
123,Suzan Bayhan,Deeptxfinder: Multiple transmitter localization by deep learning in crowdsourced spectrum sensing,Selection of Sensors for Efficient Transmitter Localization,University of Twente,52.2493304,6.8511958,,Enschede,Overijssel,Netherlands
124,Hiroyuki Yomo,Wake-up Control for Energy-efficient Identifications of Multiple Emission Sources in Wireless Sensor Networks,DeepMTL: Deep Learning Based Multiple Transmitter Localization,Kansai University,34.7727934,135.51044498901356,,Suita,,Japan
125,Jun-ichi Takada,"Maximum-likelihood-based location, orientation, transmitted power, and antenna beamwidth estimator utilizing the angle-of-arrival and received power for spectrum …",Efficient Localization of Multiple Intruders in Shared Spectrum System,Society,24.9670243,67.1219726,,Karachi Division,Sindh,Pakistan
126,Zhonghui Li,Redp: Reliable entanglement distribution protocol design for large-scale quantum networks,Efficient Quantum Network Communication Using Optimized Entanglement Swapping Trees,University of Science,51.51459765,-0.11642199104621423,,London,England,United Kingdom
127,Xiaojie Fan,Optimized distribution of entanglement graph states in quantum networks,Design and Simulation of the Adaptive Continuous Entanglement Generation Protocol,Stony Brook University,40.9090809,-73.12055180275716,Suffolk County,,New York,United States
128,Caitao Zhan,Design and Simulation of the Adaptive Continuous Entanglement Generation Protocol,Efficient Quantum Network Communication Using Optimized Entanglement Swapping Trees,Argonne National Lab,41.7177843,-87.9781814,DuPage County,,Illinois,United States
129,Yunming Xiao,Revising System Premises for a Secure and Private Web,Selection of Sensors for Efficient Transmitter Localization,University of Michigan,42.2942142,-83.71003893509601,Washtenaw County,Ann Arbor,Michigan,United States
130,Caitao Zhan,Design and Simulation of the Adaptive Continuous Entanglement Generation Protocol,Optimized distribution of entanglement graph states in quantum networks,Argonne National Lab,41.7177843,-87.9781814,DuPage County,,Illinois,United States
131,Ivo Bizon Franco de Almeida,Blind transmitter localization in wireless sensor networks: A deep learning approach,Efficient Localization of Multiple Intruders in Shared Spectrum System,Research associate,38.791182000000006,-89.9902208884049,Madison County,Edwardsville,Illinois,United States
132,Mohammad Ghaderibaneh,Generation and distribution of ghz states in quantum networks,Optimizing Initial State of Detector Sensors in Quantum Sensor Networks,Stony Brook University,40.9090809,-73.12055180275716,Suffolk County,,New York,United States
133,David Leibrandt,Quantum entanglement enables single-shot trajectory sensing for weakly interacting particles,Discrete Outcome Quantum Sensor Networks,University of California,37.875499649999995,-122.23906851395179,Alameda County,Berkeley,California,United States
134,Himanshu Gupta,Optimized distribution of entanglement graph states in quantum networks,Discrete Outcome Quantum Sensor Networks,Stony Brook University,40.9090809,-73.12055180275716,Suffolk County,,New York,United States
135,C.R. Ramakrishnan,Distribution and purification of entanglement states in quantum networks,Simulation of Entanglement-Enabled Connectivity in QLANs using SeQUeNCe,Stony Brook University,40.9090809,-73.12055180275716,Suffolk County,,New York,United States
136,Ranjani G Sundaram,Distribution of quantum circuits over general quantum networks,Efficient Quantum Network Communication Using Optimized Entanglement Swapping Trees,Ph.D. Student,14.326290499999999,120.95780876734875,,Dasmariñas,Cavite,Philippines
137,Chengyue Huang,"Advancing Social Insights Through NLP: Social Media Reactions, Mental Health and Beyond",DeepMTL Pro: Deep Learning Based Multiple Transmitter Localization and Power Estimation,University of Iowa,41.631102350000006,-91.54075201642047,Johnson County,Iowa City,Iowa,United States
138,Himanshu Gupta,Optimized distribution of entanglement graph states in quantum networks,Efficient Quantum Network Communication Using Optimized Entanglement Swapping Trees,Stony Brook University,40.9090809,-73.12055180275716,Suffolk County,,New York,United States
139,Zachary Chin,Quantum entanglement enables single-shot trajectory sensing for weakly interacting particles,Discrete Outcome Quantum Sensor Networks,MIT,42.3582529,-71.0966272383055,Middlesex County,Cambridge,Massachusetts,United States
140,Nirajan Koirala,Pristiq: A co-design framework for preserving data security of quantum learning in the cloud,Quantum Sensor Network Algorithms for Transmitter Localization,University of Notre Dame,41.704567749999995,-86.23822026017265,Saint Joseph County,,Indiana,United States
141,Susmit Jha,Task-agnostic detector for insertion-based backdoor attacks,DeepMTL Pro: Deep Learning Based Multiple Transmitter Localization and Power Estimation,Intelligence,51.4872644,-0.1243541,,London,England,United Kingdom
142,Wanyu Bian,A brief overview of optimization-based algorithms for mri reconstruction using deep learning,DeepMTL: Deep Learning Based Multiple Transmitter Localization,Harvard Medical School,42.336831849999996,-71.10380921118058,Suffolk County,Boston,Massachusetts,United States
143,Xiaojie Fan,Optimized distribution of entanglement graph states in quantum networks,Transmitter Localization and Optimizing Initial State in Classical/Quantum Sensor Networks,Stony Brook University,40.9090809,-73.12055180275716,Suffolk County,,New York,United States
144,Chibuikem Ezemaduka,Privacy-aware Deep Learning based Localization of Spectrum Violators,Efficient Localization of Multiple Intruders in Shared Spectrum System,Rensselaer Polytechnic Institute,42.7298969,-73.67966781998861,Rensselaer County,City of Troy,New York,United States
145,Alhussein Abouzeid,Privacy-aware Deep Learning based Localization of Spectrum Violators,DeepMTL: Deep Learning Based Multiple Transmitter Localization,RPI,42.7298969,-73.67966781998861,Rensselaer County,City of Troy,New York,United States
146,Jianfeng Wang,"Performant, scalable, and efficient deployment of network function virtualization",Discrete Outcome Quantum Sensor Networks,Oracle America,33.1082105,-96.82005750153607,Collin County,Frisco,Texas,United States
147,Christoph Hirche,Distributed Quantum Hypothesis Testing under Zero-rate Communication Constraints,Quantum Sensor Network Algorithms for Transmitter Localization,Leibniz Universität Hannover,52.376532850000004,9.721217957520619,Region Hannover,Hanover,Lower Saxony,Germany
148,Amar Abane,Entanglement Routing in Quantum Networks: A Comprehensive Survey,Efficient Quantum Network Communication Using Optimized Entanglement Swapping Trees,NIST,39.131611649999996,-77.21654057806873,Montgomery County,Gaithersburg,Maryland,United States
149,Jiale Li, Machine learning for advanced emission monitoring and reduction strategies in fossil fuel power plants,DeepAlloc: Deep Learning Approach to Spectrum Allocation in Shared Spectrum Systems,New York University,40.729205300000004,-73.99501481290962,New York County,New York,New York,United States
150,Xiaojie Fan,Distribution and purification of entanglement states in quantum networks,Design and Simulation of the Adaptive Continuous Entanglement Generation Protocol,Stony Brook University,40.9090809,-73.12055180275716,Suffolk County,,New York,United States
151,Dianqi Han,SpecKriging: GNN-based secure cooperative spectrum sensing,Selection of Sensors for Efficient Transmitter Localization,Arlington,32.7355816,-97.1071186,Tarrant County,Arlington,Texas,United States
152,Tianhao Wang,Cooperative multi-agent reinforcement learning: asynchronous communication and linear function approximation,DeepMTL Pro: Deep Learning Based Multiple Transmitter Localization and Power Estimation,Chicago,41.8755616,-87.6244212,Cook County,Chicago,Illinois,United States
153,Calin Bira,Close-range indoor transmitter localization using a system of low-cost SDR receivers,Selection of Sensors for Efficient Transmitter Localization,University Politehnica of Bucharest,44.439367950000005,26.050603266436525,,Bucharest,,Romania
154,"Joaquin Chung, PhD",Design and Simulation of the Adaptive Continuous Entanglement Generation Protocol,Simulation of Quantum Transduction Strategies for Quantum Networks,Argonne National Laboratory,41.70914095,-87.9786221366494,DuPage County,,Illinois,United States
155,Mohammad Ghaderibaneh,Entanglement Distribution in Quantum Networks,Discrete Outcome Quantum Sensor Networks,Stony Brook University,40.9090809,-73.12055180275716,Suffolk County,,New York,United States
156,Mark Hillery,Discrete-outcome sensor networks. II. Multiple detection events and grouping detectors,Discrete Outcome Quantum Sensor Networks,Hunter College,40.7683107,-73.9644059567109,New York County,New York,New York,United States
157,Wanyu Bian,An Optimal Control Approach for Inverse Problems with Deep Learnable Regularizers,Efficient Localization of Multiple Intruders in Shared Spectrum System,Harvard Medical School,42.336831849999996,-71.10380921118058,Suffolk County,Boston,Massachusetts,United States
158,Hanrui Wang,QuCS: a lecture series on quantum computer software and system,Discrete Outcome Quantum Sensor Networks,MIT,42.3582529,-71.0966272383055,Middlesex County,Cambridge,Massachusetts,United States
159,Nenghai Yu,Efficient Routing Design Based on Entanglement Flow Loss Effect in Quantum Networks,Efficient Quantum Network Communication Using Optimized Entanglement Swapping Trees,University of Science and Technology of China,31.839071949999997,117.26420747857581,,Baohe District,Anhui,China
160,Hongli Xu,Dynamic Entanglement Routing Based on Stream Processing for Quantum Networks,Efficient Quantum Network Communication Using Optimized Entanglement Swapping Trees,University of Science and Technology of China,31.839071949999997,117.26420747857581,,Baohe District,Anhui,China
161,Caitao Zhan,Design and Simulation of the Adaptive Continuous Entanglement Generation Protocol,Quantum Sensor Network Algorithms for Transmitter Localization,Argonne National Lab,41.7177843,-87.9781814,DuPage County,,Illinois,United States
162,Zhepeng Wang,Pristiq: A co-design framework for preserving data security of quantum learning in the cloud,Quantum Sensor Network Algorithms for Transmitter Localization,"Applied Scientist at Amazon Search, PhD Candidate at George Mason University",47.622721,-122.337176,King County,Seattle,Washington,USA
163,Yubo Luo,Scaling Up Task Execution on Resource-Constrained Systems,Quantum Sensor Network Algorithms for Transmitter Localization,University of North Carolina at Chapel Hill,35.90503535,-79.04775326525107,Orange County,Chapel Hill,North Carolina,United States
164,Xinjin Li,Research on the application of computer vision based on deep learning in autonomous driving technology,DeepMTL: Deep Learning Based Multiple Transmitter Localization,Columbia University,40.80775585,-73.96161411567529,New York County,New York,New York,United States
165,Zhenlin An,Understanding localization by a tailored GPT,DeepMTL: Deep Learning Based Multiple Transmitter Localization,University of Pittsburgh,40.44415295,-79.96246095144505,Allegheny County,Pittsburgh,Pennsylvania,United States
166,Alexander Kolar,Design and Simulation of the Adaptive Continuous Entanglement Generation Protocol,Quantum Sensor Network Algorithms for Transmitter Localization,University of Chicago,41.79139685,-87.60084387193544,Cook County,Chicago,Illinois,United States
167,Van Sy Mai,Entanglement Routing in Quantum Networks: A Comprehensive Survey,Efficient Quantum Network Communication Using Optimized Entanglement Swapping Trees,National Institute of Standards,40.67799185,-105.04466731317135,Larimer County,,Colorado,United States
168,Panawit Hanpinitsak,"Maximum-likelihood-based location, orientation, transmitted power, and antenna beamwidth estimator utilizing the angle-of-arrival and received power for spectrum …",Efficient Localization of Multiple Intruders in Shared Spectrum System,Khon Kaen University,17.8036539,102.74803128559202,,,,Thailand
169,Jianfeng Wang,"Performant, scalable, and efficient deployment of network function virtualization",Optimizing Initial State of Detector Sensors in Quantum Sensor Networks,Oracle America,33.1082105,-96.82005750153607,Collin County,Frisco,Texas,United States
170,Yifei Min,Cooperative multi-agent reinforcement learning: asynchronous communication and linear function approximation,DeepMTL: Deep Learning Based Multiple Transmitter Localization,Data Science,51.6090791,-3.9831441009833535,Swansea,Swansea,Wales,United Kingdom
171,Mohammad Ghaderibaneh,Deepmtl: Deep learning based multiple transmitter localization,Selection of Sensors for Efficient Transmitter Localization,Stony Brook University,40.9090809,-73.12055180275716,Suffolk County,,New York,United States
172,Matthew Nance-Hall,A survey of reconfigurable optical networks,Near-optimal Multihop Scheduling in General Circuit-switched Networks,Computer,50.91225,14.44788,Ústí nad Labem Region,,Northwest,Czechia
173,Zhepeng Wang,Pristiq: A co-design framework for preserving data security of quantum learning in the cloud,Optimizing Initial State of Detector Sensors in Quantum Sensor Networks,"Applied Scientist at Amazon Search, PhD Candidate at George Mason University",47.622721,-122.337176,King County,Seattle,Washington,USA
174,Rabeb Mizouni,Multiple source localization in IoT: a conditional GAN and image-processing-based framework,DeepMTL Pro: Deep Learning Based Multiple Transmitter Localization and Power Estimation,Khalifa University,24.4479513,54.39552668551741,Abu Dhabi,Abu Dhabi,Abu Dhabi Emirate,United Arab Emirates
175,Hang Ren,Unleashing the potential of llms for quantum computing: A study in quantum architecture design,Quantum Sensor Network Algorithms for Transmitter Localization,UC Berkeley,37.875499649999995,-122.23906851395179,Alameda County,Berkeley,California,United States
176,Himanshu Gupta,Quantum sensor network algorithms for transmitter localization,Discrete Outcome Quantum Sensor Networks,Stony Brook University,40.9090809,-73.12055180275716,Suffolk County,,New York,United States
177,Himanshu Gupta,Selection of sensors for efficient transmitter localization,Efficient Localization of Multiple Intruders in Shared Spectrum System,Stony Brook University,40.9090809,-73.12055180275716,Suffolk County,,New York,United States
178,Wan Du,OrchLoc: In-orchard localization via a single LoRa gateway and generative diffusion model-based fingerprinting,DeepMTL Pro: Deep Learning Based Multiple Transmitter Localization and Power Estimation,UC Merced,37.365182,-120.42252751958962,Merced County,Merced,California,United States
179,Zhiding Liang,Unleashing the potential of llms for quantum computing: A study in quantum architecture design,Quantum Sensor Network Algorithms for Transmitter Localization,Rensselaer Polytechnic Institute,42.7298969,-73.67966781998861,Rensselaer County,City of Troy,New York,United States
181,"Jugal Talukdar, Ph. D.",Efficient Multiparty Entanglement Distribution with DODAG-X Protocol,Optimized distribution of entanglement graph states in quantum networks,Los Angeles,34.0536909,-118.242766,Los Angeles County,Los Angeles,California,United States
182,Zhiding Liang,QuCS: a lecture series on quantum computer software and system,Quantum Sensor Network Algorithms for Transmitter Localization,Rensselaer Polytechnic Institute,42.7298969,-73.67966781998861,Rensselaer County,City of Troy,New York,United States
183,Man Lin,Data-driven Software-based Power Estimation for Embedded Devices,DeepMTL Pro: Deep Learning Based Multiple Transmitter Localization and Power Estimation,St. Francis Xavier University,45.61752735,-61.99488302044932,Town of Antigonish,,Nova Scotia,Canada
184,Arash Ahmadi,A Residual Neural Network Approach to Transmitter Localization,DeepMTL Pro: Deep Learning Based Multiple Transmitter Localization and Power Estimation,École de Technologie Supérieure (ETS),45.49451545,-73.5628554929944,Urban agglomeration of Montreal,Montreal,Quebec,Canada
185,"Nazar Waheed, PhD",Quantum-Inspired Resource Optimization for 6G Networks: A Survey,Efficient Quantum Network Communication Using Optimized Entanglement Swapping Trees,Higher Colleges of Technology,25.1518543,56.34369939487155,,Fujairah City,Fujairah Emirate,United Arab Emirates
186,Arani Bhattacharya,Fast and efficient online selection of sensors for transmitter localization,Selection of Sensors for Efficient Transmitter Localization,IIIT-Delhi,28.54632595,77.27325504180786,Kalkaji Tehsil,New Delhi,Delhi,India
187,Ahmad Nimr,Blind transmitter localization in wireless sensor networks: A deep learning approach,Efficient Localization of Multiple Intruders in Shared Spectrum System,TU Dresden,51.028276500000004,13.735982754935176,,Dresden,Saxony,Germany
188,Caitao Zhan,Quantum sensor network algorithms for transmitter localization,Efficient Localization of Multiple Intruders in Shared Spectrum System,Argonne National Lab,41.7177843,-87.9781814,DuPage County,,Illinois,United States
189,Caitao Zhan,Transmitter Localization and Optimizing Initial State in Classical/Quantum Sensor Networks,Quantum Sensor Network Algorithms for Transmitter Localization,Argonne National Lab,41.7177843,-87.9781814,DuPage County,,Illinois,United States
190,Luís Bugalho,Entanglement routing based on fidelity curves for quantum photonics channels,Efficient Quantum Network Communication Using Optimized Entanglement Swapping Trees,"Lisboa, Portugal",38.7077507,-9.1365919,Lisbon,Lisbon,,Portugal
191,Caitao Zhan,Transmitter Localization and Optimizing Initial State in Classical/Quantum Sensor Networks,Discrete Outcome Quantum Sensor Networks,Argonne National Lab,41.7177843,-87.9781814,DuPage County,,Illinois,United States
192,Jiale Li, Machine learning for advanced emission monitoring and reduction strategies in fossil fuel power plants,DeepMTL: Deep Learning Based Multiple Transmitter Localization,New York University,40.729205300000004,-73.99501481290962,New York County,New York,New York,United States
193,Weimin Lyu,Task-agnostic detector for insertion-based backdoor attacks,DeepMTL Pro: Deep Learning Based Multiple Transmitter Localization and Power Estimation,Stony Brook University,40.9090809,-73.12055180275716,Suffolk County,,New York,United States
194,"Pranjal Sahu, Ph.D",Deepmtl pro: Deep learning based multiple transmitter localization and power estimation,Selection of Sensors for Efficient Transmitter Localization,Siemens Healthineers,42.15018335,-71.20516148354095,Norfolk County,,Massachusetts,United States
195,Guimin Dong,Incremental Semi-supervised Federated Learning for Health Inference via Mobile Sensing,DeepMTL: Deep Learning Based Multiple Transmitter Localization,Amazon,47.622721,-122.337176,King County,Seattle,Washington,USA
196,C.R. Ramakrishnan,Distribution and purification of entanglement states in quantum networks,Optimizing Initial State of Detector Sensors in Quantum Sensor Networks,Stony Brook University,40.9090809,-73.12055180275716,Suffolk County,,New York,United States
197,Allen Zang,Hardware-Software Co-design for Distributed Quantum Computing,Design and Simulation of the Adaptive Continuous Entanglement Generation Protocol,University of Chicago,41.79139685,-87.60084387193544,Cook County,Chicago,Illinois,United States
198,Zhiding Liang,QuCS: a lecture series on quantum computer software and system,Discrete Outcome Quantum Sensor Networks,Rensselaer Polytechnic Institute,42.7298969,-73.67966781998861,Rensselaer County,City of Troy,New York,United States
199,Wanyu Bian,An Optimal Control Approach for Inverse Problems with Deep Learnable Regularizers,Optimized distribution of entanglement graph states in quantum networks,Harvard Medical School,42.336831849999996,-71.10380921118058,Suffolk County,Boston,Massachusetts,United States
201,Aniqua Baset,Deep learning-based localization in limited data regimes,Efficient Localization of Multiple Intruders in Shared Spectrum System,The Aerospace Corporation,33.915586149999996,-118.3823266373031,Los Angeles County,,California,United States
202,Susmit Jha,Task-agnostic detector for insertion-based backdoor attacks,DeepMTL Pro: Deep Learning Based Multiple Transmitter Localization and Power Estimation,SRI International,37.45648105,-122.17539244060208,San Mateo County,,California,United States
203,Van Sy Mai,Entanglement Routing in Quantum Networks: A Comprehensive Survey,Efficient Quantum Network Communication Using Optimized Entanglement Swapping Trees,Technology (NIST),39.13710835,-77.21695110505095,Montgomery County,,Maryland,United States
204,Yifan Mao,[BOOK][B] Efficient peer-to-peer network design for decentralized applications,Discrete Outcome Quantum Sensor Networks,the Ohio State University,40.00568015,-83.02866123579578,Franklin County,Columbus,Ohio,United States
205,Rajkumar Kettimuthu,Simulation of Entanglement-Enabled Connectivity in QLANs using SeQUeNCe,Discrete Outcome Quantum Sensor Networks,University of Chicago,41.79139685,-87.60084387193544,Cook County,Chicago,Illinois,United States
206,Sneha Kasera,Deep learning-based localization in limited data regimes,DeepMTL Pro: Deep Learning Based Multiple Transmitter Localization and Power Estimation,University of Utah,40.762813699999995,-111.83687191368261,Salt Lake County,Salt Lake City,Utah,United States
207,Himanshu Gupta,Distribution and purification of entanglement states in quantum networks,Optimized distribution of entanglement graph states in quantum networks,Stony Brook University,40.9090809,-73.12055180275716,Suffolk County,,New York,United States
208,Mingyue Tang,Incremental Semi-supervised Federated Learning for Health Inference via Mobile Sensing,DeepMTL: Deep Learning Based Multiple Transmitter Localization,University of Illinois Urbana-Champaign,40.076154450000004,-88.22331340640494,Champaign County,Urbana,Illinois,United States
209,Himanshu Gupta,Generation and distribution of ghz states in quantum networks,Quantum Sensor Network Algorithms for Transmitter Localization,Stony Brook University,40.9090809,-73.12055180275716,Suffolk County,,New York,United States
210,No_author_found,Intelligent Spectrum Coexistence in UAV-Enabled NextG Networks: Algorithms and Testing Framework,DeepAlloc: Deep Learning Approach to Spectrum Allocation in Shared Spectrum Systems,No_author_found,,,,,,
211,Arani Bhattacharya,A gaussian process based technique of efficient sensor selection for transmitter localization,Selection of Sensors for Efficient Transmitter Localization,IIIT-Delhi,28.54632595,77.27325504180786,Kalkaji Tehsil,New Delhi,Delhi,India
212,Mohammad Ghaderibaneh,Entanglement Distribution in Quantum Networks,Quantum Sensor Network Algorithms for Transmitter Localization,Stony Brook University,40.9090809,-73.12055180275716,Suffolk County,,New York,United States
213,Kaiping Xue,Redp: Reliable entanglement distribution protocol design for large-scale quantum networks,Efficient Quantum Network Communication Using Optimized Entanglement Swapping Trees,University of Science and Technology of China,31.839071949999997,117.26420747857581,,Baohe District,Anhui,China
214,Jan Neerbek,Providing customized entertainment experience using human presence detection,Efficient Localization of Multiple Intruders in Shared Spectrum System,Roku,-9.4593746,147.0906457,,,Central,Papua New Guinea
215,Jianfeng Wang,"Performant, scalable, and efficient deployment of network function virtualization",Discrete Outcome Quantum Sensor Networks,Inc.,38.321089,106.38857247478668,Lingwu City,Yinchuan City,Ningxia,China
216,Chen Qian,Concurrent entanglement routing for quantum networks: Model and designs,Efficient Quantum Network Communication Using Optimized Entanglement Swapping Trees,University of California Santa Cruz,36.9550719,-122.05036405,Santa Cruz County,Santa Cruz,California,United States
217,Tianyi Hao,Spacepulse: Combining parameterized pulses and contextual subspace for more practical vqe,Quantum Sensor Network Algorithms for Transmitter Localization,University of Wisconsin-Madison,43.080274450000005,-89.43095871991434,Dane County,Madison,Wisconsin,United States
218,Zitu Zuo, Machine learning for advanced emission monitoring and reduction strategies in fossil fuel power plants,DeepAlloc: Deep Learning Approach to Spectrum Allocation in Shared Spectrum Systems,Chongqing University,29.5699866,106.4596225,,Shapingba District,Chongqing,China
220,Kanad Basu (কণাদ বসু),Pristiq: A co-design framework for preserving data security of quantum learning in the cloud,Quantum Sensor Network Algorithms for Transmitter Localization,University of Texas at Dallas,32.9875855,-96.7497840266667,Dallas County,Richardson,Texas,United States
221,Ranjani G Sundaram,Distributed quantum computation with minimum circuit execution time over quantum networks,Efficient Quantum Network Communication Using Optimized Entanglement Swapping Trees,Ph.D. Student,14.326290499999999,120.95780876734875,,Dasmariñas,Cavite,Philippines
222,Entong He,QuERLoc: Towards Next-Generation Localization with Quantum-Enhanced Ranging,Quantum Sensor Network Algorithms for Transmitter Localization,The University of Hong Kong,22.28269745,114.13845499995571,,Hong Kong Island,Hong Kong,China
223,Quanquan Gu,Cooperative multi-agent reinforcement learning: asynchronous communication and linear function approximation,DeepMTL Pro: Deep Learning Based Multiple Transmitter Localization and Power Estimation,UCLA,34.070877749999994,-118.44685031405575,Los Angeles County,Los Angeles,California,United States
224,Yubo Luo,Scaling Up Task Execution on Resource-Constrained Systems,Near-optimal Multihop Scheduling in General Circuit-switched Networks,Chapel Hill,35.9131542,-79.05578,Orange County,Chapel Hill,North Carolina,United States
225,I. Chuang,Quantum entanglement enables single-shot trajectory sensing for weakly interacting particles,Discrete Outcome Quantum Sensor Networks,MIT,42.3582529,-71.0966272383055,Middlesex County,Cambridge,Massachusetts,United States
226,C.R. Ramakrishnan,Distribution and purification of entanglement states in quantum networks,Optimized distribution of entanglement graph states in quantum networks,Stony Brook University,40.9090809,-73.12055180275716,Suffolk County,,New York,United States
227,Poramat Chianvichai,Enhancing Quantum Network Establishment Through Multi-Objective Genetic Algorithm,Efficient Quantum Network Communication Using Optimized Entanglement Swapping Trees,Mahidol University,13.79465205,100.32185831362244,Tha Talat,,,Thailand
228,Hailu Xu, Fast Meta Failure Recovery for Federated Meta-Learning [Vision Paper],DeepMTL Pro: Deep Learning Based Multiple Transmitter Localization and Power Estimation,Long Beach,33.7690164,-118.191604,Los Angeles County,Long Beach,California,United States
229,Jan Neerbek,Providing safety and environmental features using human presence detection,Efficient Localization of Multiple Intruders in Shared Spectrum System,Roku,-9.4593746,147.0906457,,,Central,Papua New Guinea
230,Himanshu Gupta,Deepmtl pro: Deep learning based multiple transmitter localization and power estimation,Selection of Sensors for Efficient Transmitter Localization,Stony Brook University,40.9090809,-73.12055180275716,Suffolk County,,New York,United States
231,Kaitlyn M. Graves,Digital spectrum twins for enhanced spectrum sharing and other radio applications,Efficient Localization of Multiple Intruders in Shared Spectrum System,Georgia Institute of Technology,33.776094799999996,-84.3988076699857,Fulton County,Atlanta,Georgia,United States
232,Jianfeng Wang,"Performant, scalable, and efficient deployment of network function virtualization",Efficient Quantum Network Communication Using Optimized Entanglement Swapping Trees,Oracle America,33.1082105,-96.82005750153607,Collin County,Frisco,Texas,United States
233,Bahareh Alizadeh,Scalable flood inundation mapping using deep convolutional networks and traffic signage,DeepMTL: Deep Learning Based Multiple Transmitter Localization,Texas A&M University,30.6108618,-96.35206061388457,Brazos County,College Station,Texas,United States
234,Caitao Zhan,Transmitter Localization and Optimizing Initial State in Classical/Quantum Sensor Networks,Optimizing Initial State of Detector Sensors in Quantum Sensor Networks,Argonne National Lab,41.7177843,-87.9781814,DuPage County,,Illinois,United States
235,Yubo Luo,Scaling Up Task Execution on Resource-Constrained Systems,Discrete Outcome Quantum Sensor Networks,Chapel Hill,35.9131542,-79.05578,Orange County,Chapel Hill,North Carolina,United States
236,Mohammad Ghaderibaneh,DeepAlloc: Deep Learning Approach to Spectrum Allocation in Shared Spectrum Systems,Efficient Localization of Multiple Intruders in Shared Spectrum System,Stony Brook University,40.9090809,-73.12055180275716,Suffolk County,,New York,United States
237,Xiaojie Fan,Distribution and purification of entanglement states in quantum networks,Efficient Quantum Network Communication Using Optimized Entanglement Swapping Trees,Stony Brook University,40.9090809,-73.12055180275716,Suffolk County,,New York,United States
238,Zhepeng Wang,Pristiq: A co-design framework for preserving data security of quantum learning in the cloud,Quantum Sensor Network Algorithms for Transmitter Localization,George Mason University,38.83133325,-77.30798838879116,Fairfax County,,Virginia,United States
239,Laura E Barnes,Incremental Semi-supervised Federated Learning for Health Inference via Mobile Sensing,DeepMTL: Deep Learning Based Multiple Transmitter Localization,Univ of Virginia,38.0410576,-78.50550841214823,Albemarle County,,Virginia,United States
240,Xiaojie Fan,Distribution and purification of entanglement states in quantum networks,Quantum Sensor Network Algorithms for Transmitter Localization,Stony Brook University,40.9090809,-73.12055180275716,Suffolk County,,New York,United States
241,Kaitlyn M. Graves,Digital spectrum twins for enhanced spectrum sharing and other radio applications,DeepMTL Pro: Deep Learning Based Multiple Transmitter Localization and Power Estimation,Georgia Institute of Technology,33.776094799999996,-84.3988076699857,Fulton County,Atlanta,Georgia,United States
242,Michael A. Varner,Digital spectrum twins for enhanced spectrum sharing and other radio applications,DeepMTL Pro: Deep Learning Based Multiple Transmitter Localization and Power Estimation,Georgia Institute of Technology,33.776094799999996,-84.3988076699857,Fulton County,Atlanta,Georgia,United States
243,Zongxing Xie,Wireless Sensing for Home-Based Health Monitoring With Robustness and Scalability,Near-optimal Multihop Scheduling in General Circuit-switched Networks,Kennesaw State University,34.03834515,-84.58310525598046,Cobb County,,Georgia,United States
244,Lei Yang,FedCust: Offloading hyperparameter customization for federated learning,DeepMTL: Deep Learning Based Multiple Transmitter Localization,Reno,39.5261206,-119.8126581,Washoe County,Reno,Nevada,United States
245,Frost Mitchell,Deep learning-based localization in limited data regimes,Efficient Localization of Multiple Intruders in Shared Spectrum System,University of Utah,40.762813699999995,-111.83687191368261,Salt Lake County,Salt Lake City,Utah,United States
246,"Amir Behzadan, Ph.D., M.ASCE",Scalable flood inundation mapping using deep convolutional networks and traffic signage,DeepMTL: Deep Learning Based Multiple Transmitter Localization,University of Colorado Boulder,40.006937300000004,-105.266386566938,Boulder County,Boulder,Colorado,United States
247,Mohammad Ghaderibaneh,Pre-distribution of entanglements in quantum networks,Efficient Quantum Network Communication Using Optimized Entanglement Swapping Trees,Stony Brook University,40.9090809,-73.12055180275716,Suffolk County,,New York,United States
248,Frost Mitchell,Localizing Spectrum Offenders Using Crowdsourcing,DeepMTL Pro: Deep Learning Based Multiple Transmitter Localization and Power Estimation,University of Utah,40.762813699999995,-111.83687191368261,Salt Lake County,Salt Lake City,Utah,United States
250,Fangtong Zhou,FENDI: Toward high-fidelity entanglement distribution in the quantum internet,Optimizing Initial State of Detector Sensors in Quantum Sensor Networks,North Carolina State University,35.77184965,-78.67408695452633,Wake County,Raleigh,North Carolina,United States
251,Himanshu Gupta,Generation and distribution of ghz states in quantum networks,Optimizing Initial State of Detector Sensors in Quantum Sensor Networks,Stony Brook University,40.9090809,-73.12055180275716,Suffolk County,,New York,United States
252,Jiafan He,Cooperative multi-agent reinforcement learning: asynchronous communication and linear function approximation,DeepMTL: Deep Learning Based Multiple Transmitter Localization,UCLA,34.070877749999994,-118.44685031405575,Los Angeles County,Los Angeles,California,United States
253,Zhepeng Wang,Pristiq: A co-design framework for preserving data security of quantum learning in the cloud,Quantum Sensor Network Algorithms for Transmitter Localization,Amazon Search,47.622721,-122.337176,King County,Seattle,Washington,USA
254,No_author_found,Adversarial attack on deep learning driven multiple transmitter localization,DeepMTL Pro: Deep Learning Based Multiple Transmitter Localization and Power Estimation,No_author_found,,,,,,
255,Kang Yang,OrchLoc: In-orchard localization via a single LoRa gateway and generative diffusion model-based fingerprinting,DeepMTL: Deep Learning Based Multiple Transmitter Localization,UCLA,34.070877749999994,-118.44685031405575,Los Angeles County,Los Angeles,California,United States
256,Caitao Zhan,Deepmtl pro: Deep learning based multiple transmitter localization and power estimation,Efficient Localization of Multiple Intruders in Shared Spectrum System,Argonne National Lab,41.7177843,-87.9781814,DuPage County,,Illinois,United States
257,Himanshu Gupta,Optimized distribution of entanglement graph states in quantum networks,Optimizing Initial State of Detector Sensors in Quantum Sensor Networks,Stony Brook University,40.9090809,-73.12055180275716,Suffolk County,,New York,United States
258,Zongxing Xie,Wireless Sensing for Home-Based Health Monitoring With Robustness and Scalability,Selection of Sensors for Efficient Transmitter Localization,Kennesaw State University,34.03834515,-84.58310525598046,Cobb County,,Georgia,United States
259,Klaus-Tycho Foerster,A survey of reconfigurable optical networks,Near-optimal Multihop Scheduling in General Circuit-switched Networks,TU Dortmund,51.49148435,7.4122738886856805,,Dortmund,North Rhine-Westphalia,Germany
260,Ivo Bizon Franco de Almeida,Blind transmitter localization using deep learning: A scalability study,DeepMTL: Deep Learning Based Multiple Transmitter Localization,TU Dresden,51.028276500000004,13.735982754935176,,Dresden,Saxony,Germany
261,Fusheng Wang,Badclm: Backdoor attack in clinical language models for electronic health records,DeepMTL Pro: Deep Learning Based Multiple Transmitter Localization and Power Estimation,Stony Brook University,40.9090809,-73.12055180275716,Suffolk County,,New York,United States
262,Jie Wang,Utilizing Confidence in Localization Predictions for Improved Spectrum Management,DeepMTL Pro: Deep Learning Based Multiple Transmitter Localization and Power Estimation,Washington University in St. Louis,38.64724015,-90.30840171586841,,St. Louis,Missouri,United States
263,Shakti Singh,Multiple source localization in IoT: a conditional GAN and image-processing-based framework,DeepMTL Pro: Deep Learning Based Multiple Transmitter Localization and Power Estimation,Electrical,38.1052532,70.02195948173724,Muminobod District,,Khatlon Region,Tajikistan
264,Shakti Singh,Multiple source localization in IoT: a conditional GAN and image-processing-based framework,DeepMTL Pro: Deep Learning Based Multiple Transmitter Localization and Power Estimation,Khalifa University,24.4479513,54.39552668551741,Abu Dhabi,Abu Dhabi,Abu Dhabi Emirate,United Arab Emirates
265,Obadah Habash, AI-Driven Target Localization Enabled by UAVs and IoT,DeepMTL Pro: Deep Learning Based Multiple Transmitter Localization and Power Estimation,Khalifa University,24.4479513,54.39552668551741,Abu Dhabi,Abu Dhabi,Abu Dhabi Emirate,United Arab Emirates
266,Yubo Luo,Scaling Up Task Execution on Resource-Constrained Systems,Efficient Quantum Network Communication Using Optimized Entanglement Swapping Trees,Chapel Hill,35.9131542,-79.05578,Orange County,Chapel Hill,North Carolina,United States
267,Yubo Luo,Scaling Up Task Execution on Resource-Constrained Systems,Selection of Sensors for Efficient Transmitter Localization,University of North Carolina at Chapel Hill,35.90503535,-79.04775326525107,Orange County,Chapel Hill,North Carolina,United States
268,Lihua Cai,Incremental Semi-supervised Federated Learning for Health Inference via Mobile Sensing,DeepMTL: Deep Learning Based Multiple Transmitter Localization,South China Normal University,23.14301895,113.33860420144467,,Tianhe District,Guangdong Province,China
269,Lutong Chen,Efficient Routing Design Based on Entanglement Flow Loss Effect in Quantum Networks,Efficient Quantum Network Communication Using Optimized Entanglement Swapping Trees,University of Science and Technology of China,31.839071949999997,117.26420747857581,,Baohe District,Anhui,China
270,Yifan Mao,[BOOK][B] Efficient peer-to-peer network design for decentralized applications,Optimizing Initial State of Detector Sensors in Quantum Sensor Networks,the Ohio State University,40.00568015,-83.02866123579578,Franklin County,Columbus,Ohio,United States
271,Shangsheng Wen,Enhanced pedestrian navigation on smartphones with VLP-assisted PDR integration,DeepMTL: Deep Learning Based Multiple Transmitter Localization,South China University of Technology (华南理工大学),23.15679035,113.3455777709137,,Tianhe District,Guangdong Province,China
272,Arani Bhattacharya,Fast and efficient online selection of sensors for transmitter localization,DeepMTL: Deep Learning Based Multiple Transmitter Localization,IIIT-Delhi,28.54632595,77.27325504180786,Kalkaji Tehsil,New Delhi,Delhi,India
273,Mohammad Ghaderibaneh,Deepmtl pro: Deep learning based multiple transmitter localization and power estimation,DeepMTL: Deep Learning Based Multiple Transmitter Localization,Stony Brook University,40.9090809,-73.12055180275716,Suffolk County,,New York,United States
274,Yasser Omar,Shortest path finding in quantum networks with quasi-linear complexity,Efficient Quantum Network Communication Using Optimized Entanglement Swapping Trees,Instituto Superior Técnico,38.7367455,-9.138391414374418,Lisbon,Lisbon,,Portugal
275,Michael Cubeddu,Entanglement Routing in Quantum Networks: A Comprehensive Survey,Efficient Quantum Network Communication Using Optimized Entanglement Swapping Trees,Co-Founder,38.741297349999996,-104.79379387486324,El Paso County,,Colorado,United States
276,Tao Li,SpecKriging: GNN-based secure cooperative spectrum sensing,Selection of Sensors for Efficient Transmitter Localization,Purdue University,40.430028,-86.92642114650494,Tippecanoe County,,Indiana,United States
277,"Pranjal Sahu, Ph.D",Deepmtl: Deep learning based multiple transmitter localization,Efficient Localization of Multiple Intruders in Shared Spectrum System,Siemens Healthineers,42.15018335,-71.20516148354095,Norfolk County,,Massachusetts,United States
278,"Amir Behzadan, Ph.D., M.ASCE",Crowdsourced-based deep convolutional networks for urban flood depth mapping,DeepMTL: Deep Learning Based Multiple Transmitter Localization,University of Colorado Boulder,40.006937300000004,-105.266386566938,Boulder County,Boulder,Colorado,United States
279,Aditya Bhaskara,Utilizing Confidence in Localization Predictions for Improved Spectrum Management,DeepMTL Pro: Deep Learning Based Multiple Transmitter Localization and Power Estimation,University of Utah,40.762813699999995,-111.83687191368261,Salt Lake County,Salt Lake City,Utah,United States
280,Hao-Chung Cheng,Distributed Quantum Hypothesis Testing under Zero-rate Communication Constraints,Quantum Sensor Network Algorithms for Transmitter Localization,National Taiwan University,25.016817500000002,121.53845709079619,,Taipei,,Taiwan
281,Zhiding Liang,Unleashing the potential of llms for quantum computing: A study in quantum architecture design,Discrete Outcome Quantum Sensor Networks,Rensselaer Polytechnic Institute,42.7298969,-73.67966781998861,Rensselaer County,City of Troy,New York,United States
282,Jun Zhuang,Improving trainability of variational quantum circuits via regularization strategies,Optimizing Initial State of Detector Sensors in Quantum Sensor Networks,Boise State University,43.6031707,-116.20261074563308,Ada County,Boise,Idaho,United States
283,Caitao Zhan,Quantum sensor network algorithms for transmitter localization,Optimizing Initial State of Detector Sensors in Quantum Sensor Networks,Argonne National Lab,41.7177843,-87.9781814,DuPage County,,Illinois,United States
284,Anatolij Zubow,Deeptxfinder: Multiple transmitter localization by deep learning in crowdsourced spectrum sensing,Efficient Localization of Multiple Intruders in Shared Spectrum System,Technische Universität Berlin,52.51101585,13.326954140959668,,Berlin,,Germany
285,Xiaojie Fan,Optimized distribution of entanglement graph states in quantum networks,Optimizing Initial State of Detector Sensors in Quantum Sensor Networks,Stony Brook University,40.9090809,-73.12055180275716,Suffolk County,,New York,United States
286,Bahareh Alizadeh,Crowdsourced-based deep convolutional networks for urban flood depth mapping,DeepMTL: Deep Learning Based Multiple Transmitter Localization,Texas A&M University,30.6108618,-96.35206061388457,Brazos County,College Station,Texas,United States
287,Allen Zang,Design and Simulation of the Adaptive Continuous Entanglement Generation Protocol,Simulation of Quantum Transduction Strategies for Quantum Networks,University of Chicago,41.79139685,-87.60084387193544,Cook County,Chicago,Illinois,United States
288,"Joaquin Chung, PhD",Simulation of Entanglement-Enabled Connectivity in QLANs using SeQUeNCe,Efficient Quantum Network Communication Using Optimized Entanglement Swapping Trees,Argonne National Laboratory,41.70914095,-87.9786221366494,DuPage County,,Illinois,United States
289,"Joaquin Chung, PhD",Simulation of Quantum Transduction Strategies for Quantum Networks,Efficient Quantum Network Communication Using Optimized Entanglement Swapping Trees,Argonne National Laboratory,41.70914095,-87.9786221366494,DuPage County,,Illinois,United States
290,Songzhu Zheng,Task-agnostic detector for insertion-based backdoor attacks,DeepMTL Pro: Deep Learning Based Multiple Transmitter Localization and Power Estimation,Morgan Stanley,43.0800861,-73.7855442,Saratoga County,City of Saratoga Springs,New York,United States
291,C.R. Ramakrishnan,Distributed quantum computation with minimum circuit execution time over quantum networks,Efficient Quantum Network Communication Using Optimized Entanglement Swapping Trees,Stony Brook University,40.9090809,-73.12055180275716,Suffolk County,,New York,United States
292,Chibuikem Ezemaduka,Privacy-aware Deep Learning based Localization of Spectrum Violators,DeepMTL: Deep Learning Based Multiple Transmitter Localization,Rensselaer Polytechnic Institute,42.7298969,-73.67966781998861,Rensselaer County,City of Troy,New York,United States
293,Mohammad Razaur Rahman Shaon,A transfer learning framework for proactive ramp metering performance assessment,DeepMTL Pro: Deep Learning Based Multiple Transmitter Localization and Power Estimation,Center for Transportation Research,28.058562600000002,-82.41634598505675,Hillsborough County,Tampa,Florida,United States
294,Neal Patwari,Localizing Spectrum Offenders Using Crowdsourcing,DeepMTL: Deep Learning Based Multiple Transmitter Localization,University of Utah,40.762813699999995,-111.83687191368261,Salt Lake County,Salt Lake City,Utah,United States
295,Caitao Zhan,Transmitter Localization and Optimizing Initial State in Classical/Quantum Sensor Networks,Near-optimal Multihop Scheduling in General Circuit-switched Networks,Argonne National Lab,41.7177843,-87.9781814,DuPage County,,Illinois,United States
296,Mengjie Zhou, Machine learning for advanced emission monitoring and reduction strategies in fossil fuel power plants,DeepMTL: Deep Learning Based Multiple Transmitter Localization,University of Bristol,51.4905582,-2.6304824978595356,North Somerset,,England,United Kingdom
297,"Jianhui Wang, Professor, IEEE Fellow", Probabilistic load forecasting for integrated energy systems using attentive quantile regression temporal convolutional network,DeepMTL Pro: Deep Learning Based Multiple Transmitter Localization and Power Estimation,Southern Methodist University,32.841801149999995,-96.78152810147064,Dallas County,,Texas,United States
298,Hongpeng Fu, Machine learning for advanced emission monitoring and reduction strategies in fossil fuel power plants,DeepMTL: Deep Learning Based Multiple Transmitter Localization,Peking University,40.17336535,116.15722001868669,,Changping District,Beijing,China
299,Himanshu Gupta,Generation and distribution of ghz states in quantum networks,Discrete Outcome Quantum Sensor Networks,Stony Brook University,40.9090809,-73.12055180275716,Suffolk County,,New York,United States
300,Wanyu Bian,An Optimal Control Approach for Inverse Problems with Deep Learnable Regularizers,DeepMTL Pro: Deep Learning Based Multiple Transmitter Localization and Power Estimation,Harvard Medical School,42.336831849999996,-71.10380921118058,Suffolk County,Boston,Massachusetts,United States
301,Wanyu Bian,An Optimal Control Approach for Inverse Problems with Deep Learnable Regularizers,Optimizing Initial State of Detector Sensors in Quantum Sensor Networks,Harvard Medical School,42.336831849999996,-71.10380921118058,Suffolk County,Boston,Massachusetts,United States
302,Wanyu Bian,A brief overview of optimization-based algorithms for mri reconstruction using deep learning,DeepMTL Pro: Deep Learning Based Multiple Transmitter Localization and Power Estimation,Harvard Medical School,42.336831849999996,-71.10380921118058,Suffolk County,Boston,Massachusetts,United States
303,Liusheng Huang,Dynamic Entanglement Routing Based on Stream Processing for Quantum Networks,Efficient Quantum Network Communication Using Optimized Entanglement Swapping Trees,University of Science,51.51459765,-0.11642199104621423,,London,England,United Kingdom
304,Himanshu Gupta,Efficient localization of multiple intruders in shared spectrum system,Selection of Sensors for Efficient Transmitter Localization,Stony Brook University,40.9090809,-73.12055180275716,Suffolk County,,New York,United States
305,Caitao Zhan,Deepmtl: Deep learning based multiple transmitter localization,Selection of Sensors for Efficient Transmitter Localization,Argonne National Lab,41.7177843,-87.9781814,DuPage County,,Illinois,United States
306,Jianfeng Wang,"Performant, scalable, and efficient deployment of network function virtualization",Efficient Quantum Network Communication Using Optimized Entanglement Swapping Trees,Inc.,38.321089,106.38857247478668,Lingwu City,Yinchuan City,Ningxia,China
307,Jian Li,Redp: Reliable entanglement distribution protocol design for large-scale quantum networks,Efficient Quantum Network Communication Using Optimized Entanglement Swapping Trees,USTC,31.839071949999997,117.26420747857581,,Baohe District,Anhui,China
308,Nenghai Yu,Redp: Reliable entanglement distribution protocol design for large-scale quantum networks,Efficient Quantum Network Communication Using Optimized Entanglement Swapping Trees,University of Science and Technology of China,31.839071949999997,117.26420747857581,,Baohe District,Anhui,China
309,Jianfeng Wang,"Performant, scalable, and efficient deployment of network function virtualization",Efficient Localization of Multiple Intruders in Shared Spectrum System,Oracle America,33.1082105,-96.82005750153607,Collin County,Frisco,Texas,United States
310,Caitao Zhan,Optimized distribution of entanglement graph states in quantum networks,Design and Simulation of the Adaptive Continuous Entanglement Generation Protocol,Argonne National Lab,41.7177843,-87.9781814,DuPage County,,Illinois,United States
311,Yifei Min,Statistical Theory and Algorithms for Sequential Decision Making,Efficient Localization of Multiple Intruders in Shared Spectrum System,Data Science,51.6090791,-3.9831441009833535,Swansea,Swansea,Wales,United Kingdom
312,Bruno Coutinho,Shortest path finding in quantum networks with quasi-linear complexity,Efficient Quantum Network Communication Using Optimized Entanglement Swapping Trees,IT,42.6384261,12.674297,Terni,Terni,Umbria,Italy
313,Serhat Tadik,Digital spectrum twins for enhanced spectrum sharing and other radio applications,DeepMTL Pro: Deep Learning Based Multiple Transmitter Localization and Power Estimation,Georgia Tech,33.776094799999996,-84.3988076699857,Fulton County,Atlanta,Georgia,United States
314,Muhammad Naveed Aman,Beyond bits: A review of quantum embedding techniques for efficient information processing,Efficient Quantum Network Communication Using Optimized Entanglement Swapping Trees,University of Nebraska-Lincoln,40.8305567,-96.6697373,Lancaster County,Lincoln,Nebraska,United States
315,Himanshu Gupta,Deepmtl pro: Deep learning based multiple transmitter localization and power estimation,Efficient Localization of Multiple Intruders in Shared Spectrum System,Stony Brook University,40.9090809,-73.12055180275716,Suffolk County,,New York,United States
316,Kang Yang,Advanced LoRa Networking and Sensing for IoT Applications,Efficient Localization of Multiple Intruders in Shared Spectrum System,UCLA,34.070877749999994,-118.44685031405575,Los Angeles County,Los Angeles,California,United States
317,Wanyu Bian,An Optimal Control Approach for Inverse Problems with Deep Learnable Regularizers,DeepMTL: Deep Learning Based Multiple Transmitter Localization,Harvard Medical School,42.336831849999996,-71.10380921118058,Suffolk County,Boston,Massachusetts,United States
318,Bikun Li,Space-time Peer-to-Peer Distribution of Multi-party Entanglement for Any Quantum Network,Optimized distribution of entanglement graph states in quantum networks,University of Chicago,41.79139685,-87.60084387193544,Cook County,Chicago,Illinois,United States
319,Bogdan-Calin Ciobanu,Optimal quantum network decongestion strategies,Efficient Quantum Network Communication Using Optimized Entanglement Swapping Trees,Researcher,41.6567749,41.6398829,,Batumi,Autonomous Republic of Adjara,Georgia
320,Zhepeng Wang,Qumos: A framework for preserving security of quantum machine learning model,Quantum Sensor Network Algorithms for Transmitter Localization,George Mason University,38.83133325,-77.30798838879116,Fairfax County,,Virginia,United States
321,Himanshu Gupta,Distribution of quantum circuits over general quantum networks,Efficient Quantum Network Communication Using Optimized Entanglement Swapping Trees,Stony Brook University,40.9090809,-73.12055180275716,Suffolk County,,New York,United States
322,Xiaobo Ma,On-ramp and off-ramp traffic flows estimation based on a data-driven transfer learning framework,DeepMTL Pro: Deep Learning Based Multiple Transmitter Localization and Power Estimation,University of Arizona,32.235692799999995,-110.95174399590185,Pima County,Tucson,Arizona,United States
323,Himanshu Gupta,Distribution and purification of entanglement states in quantum networks,Simulation of Entanglement-Enabled Connectivity in QLANs using SeQUeNCe,Stony Brook University,40.9090809,-73.12055180275716,Suffolk County,,New York,United States
324,Yubo Luo,Scaling Up Task Execution on Resource-Constrained Systems,Discrete Outcome Quantum Sensor Networks,University of North Carolina at Chapel Hill,35.90503535,-79.04775326525107,Orange County,Chapel Hill,North Carolina,United States
325,ZHAO Xiaopeng,Understanding localization by a tailored GPT,DeepMTL: Deep Learning Based Multiple Transmitter Localization,The Hong Kong Polytechnic University,22.304486699999998,114.17969345847592,,Kowloon,Hong Kong,China
326,Alexander Kolar,Design and Simulation of the Adaptive Continuous Entanglement Generation Protocol,Discrete Outcome Quantum Sensor Networks,University of Chicago,41.79139685,-87.60084387193544,Cook County,Chicago,Illinois,United States
327,Himanshu Gupta,Quantum sensor network algorithms for transmitter localization,DeepMTL Pro: Deep Learning Based Multiple Transmitter Localization and Power Estimation,Stony Brook University,40.9090809,-73.12055180275716,Suffolk County,,New York,United States
328,Yi Sheng,Pristiq: A co-design framework for preserving data security of quantum learning in the cloud,Quantum Sensor Network Algorithms for Transmitter Localization,George Mason University,38.83133325,-77.30798838879116,Fairfax County,,Virginia,United States
329,Ivo Bizon Franco de Almeida,Blind transmitter localization in wireless sensor networks: A deep learning approach,Efficient Localization of Multiple Intruders in Shared Spectrum System,TU Dresden,51.028276500000004,13.735982754935176,,Dresden,Saxony,Germany
330,Alexander Kolar,Design and Simulation of the Adaptive Continuous Entanglement Generation Protocol,Efficient Quantum Network Communication Using Optimized Entanglement Swapping Trees,University of Chicago,41.79139685,-87.60084387193544,Cook County,Chicago,Illinois,United States
331,Junya Shiraishi,Wake-up Control for Energy-efficient Identifications of Multiple Emission Sources in Wireless Sensor Networks,DeepMTL: Deep Learning Based Multiple Transmitter Localization,Aalborg University,57.015907049999996,9.975308243557345,,Aalborg,North Denmark Region,Denmark
332,Caitao Zhan,Quantum sensor network algorithms for transmitter localization,Efficient Quantum Network Communication Using Optimized Entanglement Swapping Trees,Argonne National Lab,41.7177843,-87.9781814,DuPage County,,Illinois,United States
333,Piotr Gawlowicz,Deeptxfinder: Multiple transmitter localization by deep learning in crowdsourced spectrum sensing,Selection of Sensors for Efficient Transmitter Localization,TU Berlin,52.51101585,13.326954140959668,,Berlin,,Germany
334,Zhepeng Wang,Qumos: A framework for preserving security of quantum machine learning model,Quantum Sensor Network Algorithms for Transmitter Localization,"Applied Scientist at Amazon Search, PhD Candidate at George Mason University",47.622721,-122.337176,King County,Seattle,Washington,USA
335,Zhepeng Wang,Pristiq: A co-design framework for preserving data security of quantum learning in the cloud,Optimizing Initial State of Detector Sensors in Quantum Sensor Networks,Amazon Search,47.622721,-122.337176,King County,Seattle,Washington,USA
336,Lutong Chen,Efficient Routing Design Based on Entanglement Flow Loss Effect in Quantum Networks,Efficient Quantum Network Communication Using Optimized Entanglement Swapping Trees,University of Science,51.51459765,-0.11642199104621423,,London,England,United Kingdom
337,Hanrui Wang,QuCS: a lecture series on quantum computer software and system,Quantum Sensor Network Algorithms for Transmitter Localization,MIT,42.3582529,-71.0966272383055,Middlesex County,Cambridge,Massachusetts,United States
338,Rajkumar Kettimuthu,Simulation of Quantum Transduction Strategies for Quantum Networks,Efficient Quantum Network Communication Using Optimized Entanglement Swapping Trees,Argonne National Laboratory,41.70914095,-87.9786221366494,DuPage County,,Illinois,United States
339,Zhizun Xu, Advancements in Sensor Fusion for Underwater SLAM: A Review on Enhanced Navigation and Environmental Perception,Quantum Sensor Network Algorithms for Transmitter Localization,School of Engineering,37.9498831,22.967247593243634,Corinthia Regional Unit,Municipal Unit of Loutraki - Perachora,"Peloponnese, Western Greece and the Ionian",Greece
340,Mohammad Ghaderibaneh,Generation and distribution of ghz states in quantum networks,Discrete Outcome Quantum Sensor Networks,Stony Brook University,40.9090809,-73.12055180275716,Suffolk County,,New York,United States
341,Liusheng Huang,Dynamic Entanglement Routing Based on Stream Processing for Quantum Networks,Efficient Quantum Network Communication Using Optimized Entanglement Swapping Trees,Technology of China,31.8403891,117.2501941133908,,Shushan District,Anhui,China
342,Jian Li,Efficient Routing Design Based on Entanglement Flow Loss Effect in Quantum Networks,Efficient Quantum Network Communication Using Optimized Entanglement Swapping Trees,USTC,31.839071949999997,117.26420747857581,,Baohe District,Anhui,China
343,Philipp Schulz,Blind transmitter localization using deep learning: A scalability study,DeepMTL: Deep Learning Based Multiple Transmitter Localization,TU Dresden,51.028276500000004,13.735982754935176,,Dresden,Saxony,Germany
344,Lutong Chen,Redp: Reliable entanglement distribution protocol design for large-scale quantum networks,Efficient Quantum Network Communication Using Optimized Entanglement Swapping Trees,Technology of China,31.8403891,117.2501941133908,,Shushan District,Anhui,China
345,Caitao Zhan,Transmitter Localization and Optimizing Initial State in Classical/Quantum Sensor Networks,DeepMTL Pro: Deep Learning Based Multiple Transmitter Localization and Power Estimation,Argonne National Lab,41.7177843,-87.9781814,DuPage County,,Illinois,United States
346,"Pranjal Sahu, Ph.D",Deepmtl pro: Deep learning based multiple transmitter localization and power estimation,Efficient Localization of Multiple Intruders in Shared Spectrum System,Siemens Healthineers,42.15018335,-71.20516148354095,Norfolk County,,Massachusetts,United States
347,"Joaquin Chung, PhD",Design and Simulation of the Adaptive Continuous Entanglement Generation Protocol,Efficient Quantum Network Communication Using Optimized Entanglement Swapping Trees,Argonne National Laboratory,41.70914095,-87.9786221366494,DuPage County,,Illinois,United States
348,Martin Suchara,Hardware-Software Co-design for Distributed Quantum Computing,Design and Simulation of the Adaptive Continuous Entanglement Generation Protocol,"Director of Product Management, Microsoft Corporation",47.645695,-122.131803,King County,Redmond,Washington,USA
349,Himanshu Gupta,Deepmtl pro: Deep learning based multiple transmitter localization and power estimation,DeepMTL: Deep Learning Based Multiple Transmitter Localization,Stony Brook University,40.9090809,-73.12055180275716,Suffolk County,,New York,United States
350,Aniqua Baset,Deep learning-based localization in limited data regimes,DeepMTL Pro: Deep Learning Based Multiple Transmitter Localization and Power Estimation,The Aerospace Corporation,33.915586149999996,-118.3823266373031,Los Angeles County,,California,United States
351,Wanyu Bian,An Optimal Control Approach for Inverse Problems with Deep Learnable Regularizers,DeepAlloc: Deep Learning Approach to Spectrum Allocation in Shared Spectrum Systems,Harvard Medical School,42.336831849999996,-71.10380921118058,Suffolk County,Boston,Massachusetts,United States
352,Zhepeng Wang,Qumos: A framework for preserving security of quantum machine learning model,Quantum Sensor Network Algorithms for Transmitter Localization,Amazon Search,47.622721,-122.337176,King County,Seattle,Washington,USA
353,William Munizzi,Efficient Multiparty Entanglement Distribution with DODAG-X Protocol,Optimized distribution of entanglement graph states in quantum networks,University of California Los Angeles (UCLA),34.070877749999994,-118.44685031405575,Los Angeles County,Los Angeles,California,United States
354,Nenghai Yu,Efficient Routing Design Based on Entanglement Flow Loss Effect in Quantum Networks,Efficient Quantum Network Communication Using Optimized Entanglement Swapping Trees,Technology of China,31.8403891,117.2501941133908,,Shushan District,Anhui,China
355,Nirajan Koirala,Pristiq: A co-design framework for preserving data security of quantum learning in the cloud,Optimizing Initial State of Detector Sensors in Quantum Sensor Networks,University of Notre Dame,41.704567749999995,-86.23822026017265,Saint Joseph County,,Indiana,United States
356,Amin Zare,VIA: Establishing the link between spectrum sensor capabilities and data analytics performance,Selection of Sensors for Efficient Transmitter Localization,Researcher,41.6567749,41.6398829,,Batumi,Autonomous Republic of Adjara,Georgia
357,Zitu Zuo, Machine learning for advanced emission monitoring and reduction strategies in fossil fuel power plants,DeepMTL: Deep Learning Based Multiple Transmitter Localization,Chongqing University,29.5699866,106.4596225,,Shapingba District,Chongqing,China
358,Yuning Chen,OrchLoc: In-orchard localization via a single LoRa gateway and generative diffusion model-based fingerprinting,Efficient Localization of Multiple Intruders in Shared Spectrum System,Merced,37.1641544,-120.7678602,Merced County,,California,United States
359,Zongxing Xie,Wireless Sensing for Home-Based Health Monitoring With Robustness and Scalability,Efficient Localization of Multiple Intruders in Shared Spectrum System,Kennesaw State University,34.03834515,-84.58310525598046,Cobb County,,Georgia,United States
360,Caitao Zhan,DeepAlloc: Deep Learning Approach to Spectrum Allocation in Shared Spectrum Systems,DeepMTL: Deep Learning Based Multiple Transmitter Localization,Argonne National Lab,41.7177843,-87.9781814,DuPage County,,Illinois,United States
361,Zhenhua Liu,Multi-User Entanglement Routing Design over Quantum Internets,Efficient Quantum Network Communication Using Optimized Entanglement Swapping Trees,Stony Brook University,40.9090809,-73.12055180275716,Suffolk County,,New York,United States
362,Jianfeng Wang,"Performant, scalable, and efficient deployment of network function virtualization",Near-optimal Multihop Scheduling in General Circuit-switched Networks,Oracle America,33.1082105,-96.82005750153607,Collin County,Frisco,Texas,United States
363,Yifei Min,Cooperative multi-agent reinforcement learning: asynchronous communication and linear function approximation,DeepMTL: Deep Learning Based Multiple Transmitter Localization,Yale University,41.25713055,-72.98966960152231,South Central Connecticut Planning Region,,Connecticut,United States
364,Roberto Negrin,Efficient Multiparty Entanglement Distribution with DODAG-X Protocol,Optimized distribution of entanglement graph states in quantum networks,Los Angeles,34.0536909,-118.242766,Los Angeles County,Los Angeles,California,United States
365,No_author_found,Deep Learning‐Based Localization with Urban Electromagnetic and Geographic Information,DeepMTL: Deep Learning Based Multiple Transmitter Localization,No_author_found,,,,,,
366,No_author_found, MT-GCNN: multi-task learning with gated convolution for multiple transmitters localization in urban scenarios,DeepMTL Pro: Deep Learning Based Multiple Transmitter Localization and Power Estimation,No_author_found,,,,,,
367,Mohammad Ghaderibaneh,Generation and distribution of ghz states in quantum networks,Quantum Sensor Network Algorithms for Transmitter Localization,Stony Brook University,40.9090809,-73.12055180275716,Suffolk County,,New York,United States
368,Francesco Mazza,Simulation of Entanglement-Enabled Connectivity in QLANs using SeQUeNCe,Efficient Quantum Network Communication Using Optimized Entanglement Swapping Trees,Scuola Normale Superiore di Pisa,43.719686249999995,10.400398048187082,Pisa,Pisa,Tuscany,Italy
369,Yuning Chen,OrchLoc: In-orchard localization via a single LoRa gateway and generative diffusion model-based fingerprinting,Efficient Localization of Multiple Intruders in Shared Spectrum System,University of California,37.875499649999995,-122.23906851395179,Alameda County,Berkeley,California,United States
370,Yan Zhang,Trustworthy IoT Sensing-as-a-Service,Selection of Sensors for Efficient Transmitter Localization,The University of Akron,41.07765945,-81.51755254835959,Summit County,Akron,Ohio,United States
371,Mark Hillery,Discrete-outcome sensor networks. II. Multiple detection events and grouping detectors,Optimizing Initial State of Detector Sensors in Quantum Sensor Networks,Hunter College,40.7683107,-73.9644059567109,New York County,New York,New York,United States
372,Ranjani G Sundaram,Distributing Quantum Circuits with Minimum Circuit Execution Time over Quantum Networks,Efficient Quantum Network Communication Using Optimized Entanglement Swapping Trees,Ph.D. Student,14.326290499999999,120.95780876734875,,Dasmariñas,Cavite,Philippines
373,Caitao Zhan,Design and Simulation of the Adaptive Continuous Entanglement Generation Protocol,Optimizing Initial State of Detector Sensors in Quantum Sensor Networks,Argonne National Lab,41.7177843,-87.9781814,DuPage County,,Illinois,United States
374,Bin Huang, Probabilistic load forecasting for integrated energy systems using attentive quantile regression temporal convolutional network,DeepMTL Pro: Deep Learning Based Multiple Transmitter Localization and Power Estimation,Southern Methodist University,32.841801149999995,-96.78152810147064,Dallas County,,Texas,United States
375,Hongpeng Fu, Machine learning for advanced emission monitoring and reduction strategies in fossil fuel power plants,DeepAlloc: Deep Learning Approach to Spectrum Allocation in Shared Spectrum Systems,Peking University,40.17336535,116.15722001868669,,Changping District,Beijing,China
376,Xiaojie Fan,Optimized distribution of entanglement graph states in quantum networks,Efficient Quantum Network Communication Using Optimized Entanglement Swapping Trees,Stony Brook University,40.9090809,-73.12055180275716,Suffolk County,,New York,United States
377,Santiago Llorens,Identification of malfunctioning quantum devices,Discrete Outcome Quantum Sensor Networks,Universitat Autònoma de Barcelona,41.50155265,2.106260723986069,Vallès Occidental,,Catalonia,Spain
378,Caitao Zhan,Optimized distribution of entanglement graph states in quantum networks,Efficient Quantum Network Communication Using Optimized Entanglement Swapping Trees,Argonne National Lab,41.7177843,-87.9781814,DuPage County,,Illinois,United States
379,"Pranjal Sahu, Ph.D",Deepmtl: Deep learning based multiple transmitter localization,Selection of Sensors for Efficient Transmitter Localization,Siemens Healthineers,42.15018335,-71.20516148354095,Norfolk County,,Massachusetts,United States
380,Arani Bhattacharya,Selection of sensors for efficient transmitter localization,Efficient Localization of Multiple Intruders in Shared Spectrum System,IIIT-Delhi,28.54632595,77.27325504180786,Kalkaji Tehsil,New Delhi,Delhi,India
381,Xiaobo Ma,A transfer learning framework for proactive ramp metering performance assessment,DeepMTL Pro: Deep Learning Based Multiple Transmitter Localization and Power Estimation,University of Arizona,32.235692799999995,-110.95174399590185,Pima County,Tucson,Arizona,United States
382,Bo Guan,Mapping new realities: Ground truth image creation with pix2pix image-to-image translation,DeepMTL: Deep Learning Based Multiple Transmitter Localization,Virginia Tech,37.22192675,-80.42728184013652,Montgomery County,Blacksburg,Virginia,United States
383,Mohammad Ghaderibaneh,Deepmtl: Deep learning based multiple transmitter localization,Efficient Localization of Multiple Intruders in Shared Spectrum System,Stony Brook University,40.9090809,-73.12055180275716,Suffolk County,,New York,United States
384,C.R. Ramakrishnan,Distribution and purification of entanglement states in quantum networks,Quantum Sensor Network Algorithms for Transmitter Localization,Stony Brook University,40.9090809,-73.12055180275716,Suffolk County,,New York,United States
385,Jiafan He,Cooperative multi-agent reinforcement learning: asynchronous communication and linear function approximation,DeepMTL Pro: Deep Learning Based Multiple Transmitter Localization and Power Estimation,UCLA,34.070877749999994,-118.44685031405575,Los Angeles County,Los Angeles,California,United States
386,Yubo Luo,Scaling Up Task Execution on Resource-Constrained Systems,Near-optimal Multihop Scheduling in General Circuit-switched Networks,University of North Carolina at Chapel Hill,35.90503535,-79.04775326525107,Orange County,Chapel Hill,North Carolina,United States
387,Lutong Chen,Efficient Routing Design Based on Entanglement Flow Loss Effect in Quantum Networks,Efficient Quantum Network Communication Using Optimized Entanglement Swapping Trees,Technology of China,31.8403891,117.2501941133908,,Shushan District,Anhui,China
388,Aditya Bhaskara,Exploring adversarial attacks on learning-based localization,DeepMTL Pro: Deep Learning Based Multiple Transmitter Localization and Power Estimation,University of Utah,40.762813699999995,-111.83687191368261,Salt Lake County,Salt Lake City,Utah,United States
389,Frost Mitchell,Localizing Spectrum Offenders Using Crowdsourcing,DeepMTL: Deep Learning Based Multiple Transmitter Localization,University of Utah,40.762813699999995,-111.83687191368261,Salt Lake County,Salt Lake City,Utah,United States
390,Zhiding Liang,Spacepulse: Combining parameterized pulses and contextual subspace for more practical vqe,Quantum Sensor Network Algorithms for Transmitter Localization,Rensselaer Polytechnic Institute,42.7298969,-73.67966781998861,Rensselaer County,City of Troy,New York,United States
391,Caitao Zhan,Efficient localization of multiple intruders in shared spectrum system,Selection of Sensors for Efficient Transmitter Localization,Argonne National Lab,41.7177843,-87.9781814,DuPage County,,Illinois,United States
392,"Joaquin Chung, PhD",Design and Simulation of the Adaptive Continuous Entanglement Generation Protocol,Optimized distribution of entanglement graph states in quantum networks,Argonne National Laboratory,41.70914095,-87.9786221366494,DuPage County,,Illinois,United States
393,Yubo Luo,Scaling Up Task Execution on Resource-Constrained Systems,DeepMTL: Deep Learning Based Multiple Transmitter Localization,University of North Carolina at Chapel Hill,35.90503535,-79.04775326525107,Orange County,Chapel Hill,North Carolina,United States
394,Jinglei Cheng (J.C.),Unleashing the potential of llms for quantum computing: A study in quantum architecture design,Quantum Sensor Network Algorithms for Transmitter Localization,University of Pittsburgh,40.44415295,-79.96246095144505,Allegheny County,Pittsburgh,Pennsylvania,United States
395,Caitao Zhan,Selection of sensors for efficient transmitter localization,Efficient Localization of Multiple Intruders in Shared Spectrum System,Argonne National Lab,41.7177843,-87.9781814,DuPage County,,Illinois,United States
396,Zongxing Xie,Wireless Sensing for Home-Based Health Monitoring With Robustness and Scalability,Quantum Sensor Network Algorithms for Transmitter Localization,Kennesaw State University,34.03834515,-84.58310525598046,Cobb County,,Georgia,United States
397,Huayue Gu,FENDI: Toward high-fidelity entanglement distribution in the quantum internet,Optimizing Initial State of Detector Sensors in Quantum Sensor Networks,North Carolina State University,35.77184965,-78.67408695452633,Wake County,Raleigh,North Carolina,United States
398,Hang Ren,Unleashing the potential of llms for quantum computing: A study in quantum architecture design,Discrete Outcome Quantum Sensor Networks,UC Berkeley,37.875499649999995,-122.23906851395179,Alameda County,Berkeley,California,United States
399,Ranjani G Sundaram,Distributing quantum circuits using teleportations,Discrete Outcome Quantum Sensor Networks,Ph.D. Student,14.326290499999999,120.95780876734875,,Dasmariñas,Cavite,Philippines
400,Jinglei Cheng (J.C.),Spacepulse: Combining parameterized pulses and contextual subspace for more practical vqe,Quantum Sensor Network Algorithms for Transmitter Localization,University of Pittsburgh,40.44415295,-79.96246095144505,Allegheny County,Pittsburgh,Pennsylvania,United States
401,Anatolij Zubow,Deeptxfinder: Multiple transmitter localization by deep learning in crowdsourced spectrum sensing,Selection of Sensors for Efficient Transmitter Localization,Technische Universität Berlin,52.51101585,13.326954140959668,,Berlin,,Germany
402,Yifei Min,Statistical Theory and Algorithms for Sequential Decision Making,Discrete Outcome Quantum Sensor Networks,Yale University,41.25713055,-72.98966960152231,South Central Connecticut Planning Region,,Connecticut,United States
403,Roberto Negrin,Efficient Multiparty Entanglement Distribution with DODAG-X Protocol,Optimized distribution of entanglement graph states in quantum networks,University of California,37.875499649999995,-122.23906851395179,Alameda County,Berkeley,California,United States
404,Yifan Mao,[BOOK][B] Efficient peer-to-peer network design for decentralized applications,Quantum Sensor Network Algorithms for Transmitter Localization,the Ohio State University,40.00568015,-83.02866123579578,Franklin County,Columbus,Ohio,United States
405,Stephen K. Gray,Quantum Advantage in Distributed Sensing with Noisy Quantum Networks,Optimized distribution of entanglement graph states in quantum networks,Center for Nanoscale Materials,41.7035676,-87.99110116784604,DuPage County,,Illinois,United States
406,Himanshu Gupta,Distributing quantum circuits using teleportations,Efficient Quantum Network Communication Using Optimized Entanglement Swapping Trees,Stony Brook University,40.9090809,-73.12055180275716,Suffolk County,,New York,United States
407,Himanshu Gupta,Pre-distribution of entanglements in quantum networks,Efficient Quantum Network Communication Using Optimized Entanglement Swapping Trees,Stony Brook University,40.9090809,-73.12055180275716,Suffolk County,,New York,United States
408,Panawit Hanpinitsak,"Maximum-likelihood-based location, orientation, transmitted power, and antenna beamwidth estimator utilizing the angle-of-arrival and received power for spectrum …",DeepMTL: Deep Learning Based Multiple Transmitter Localization,Khon Kaen University,17.8036539,102.74803128559202,,,,Thailand
409,Wanyu Bian, A review of optimization-based deep learning models for mri reconstruction,DeepMTL Pro: Deep Learning Based Multiple Transmitter Localization and Power Estimation,Harvard Medical School,42.336831849999996,-71.10380921118058,Suffolk County,Boston,Massachusetts,United States
410,Wan Du,OrchLoc: In-orchard localization via a single LoRa gateway and generative diffusion model-based fingerprinting,Efficient Localization of Multiple Intruders in Shared Spectrum System,UC Merced,37.365182,-120.42252751958962,Merced County,Merced,California,United States
411,Mohammad Ghaderibaneh,Deepmtl pro: Deep learning based multiple transmitter localization and power estimation,Selection of Sensors for Efficient Transmitter Localization,Stony Brook University,40.9090809,-73.12055180275716,Suffolk County,,New York,United States
412,Stephen K. Gray,Quantum Advantage in Distributed Sensing with Noisy Quantum Networks,Optimized distribution of entanglement graph states in quantum networks,Argonne National Laboratory,41.70914095,-87.9786221366494,DuPage County,,Illinois,United States
413,Allen Zang,Design and Simulation of the Adaptive Continuous Entanglement Generation Protocol,Discrete Outcome Quantum Sensor Networks,University of Chicago,41.79139685,-87.60084387193544,Cook County,Chicago,Illinois,United States
414,Yifan Mao,[BOOK][B] Efficient peer-to-peer network design for decentralized applications,Efficient Quantum Network Communication Using Optimized Entanglement Swapping Trees,the Ohio State University,40.00568015,-83.02866123579578,Franklin County,Columbus,Ohio,United States
415,Biplab Sikdar,Beyond bits: A review of quantum embedding techniques for efficient information processing,Efficient Quantum Network Communication Using Optimized Entanglement Swapping Trees,National University of Singapore,1.2962018,103.77689765953073,,Singapore,,Singapore
416,Ahmad Nimr,Blind transmitter localization using deep learning: A scalability study,DeepMTL: Deep Learning Based Multiple Transmitter Localization,TU Dresden,51.028276500000004,13.735982754935176,,Dresden,Saxony,Germany
417,Xiaolong Ma,FedCust: Offloading hyperparameter customization for federated learning,DeepMTL: Deep Learning Based Multiple Transmitter Localization,Argonne National Laboratory,41.70914095,-87.9786221366494,DuPage County,,Illinois,United States
418,Yuning Chen,OrchLoc: In-orchard localization via a single LoRa gateway and generative diffusion model-based fingerprinting,DeepMTL: Deep Learning Based Multiple Transmitter Localization,University of California,37.875499649999995,-122.23906851395179,Alameda County,Berkeley,California,United States
419,Yifei Min,Statistical Theory and Algorithms for Sequential Decision Making,Optimizing Initial State of Detector Sensors in Quantum Sensor Networks,Data Science,51.6090791,-3.9831441009833535,Swansea,Swansea,Wales,United Kingdom
420,Himanshu Gupta,Quantum sensor network algorithms for transmitter localization,DeepMTL: Deep Learning Based Multiple Transmitter Localization,Stony Brook University,40.9090809,-73.12055180275716,Suffolk County,,New York,United States
421,Yubo Luo,Scaling Up Task Execution on Resource-Constrained Systems,DeepMTL Pro: Deep Learning Based Multiple Transmitter Localization and Power Estimation,University of North Carolina at Chapel Hill,35.90503535,-79.04775326525107,Orange County,Chapel Hill,North Carolina,United States
422,Himanshu Gupta,Distribution and purification of entanglement states in quantum networks,Quantum Sensor Network Algorithms for Transmitter Localization,Stony Brook University,40.9090809,-73.12055180275716,Suffolk County,,New York,United States
423,Kang Yang,OrchLoc: In-orchard localization via a single LoRa gateway and generative diffusion model-based fingerprinting,Efficient Localization of Multiple Intruders in Shared Spectrum System,UCLA,34.070877749999994,-118.44685031405575,Los Angeles County,Los Angeles,California,United States
424,Himanshu Gupta,Distributing Quantum Circuits with Minimum Circuit Execution Time over Quantum Networks,Efficient Quantum Network Communication Using Optimized Entanglement Swapping Trees,Stony Brook University,40.9090809,-73.12055180275716,Suffolk County,,New York,United States
425,Pablo V. Parellada, No-go theorems for photon state transformations in quantum linear optics,Efficient Quantum Network Communication Using Optimized Entanglement Swapping Trees,Universidad de Valladolid,41.6516894,-4.7209841,,Valladolid,Castile and León,Spain
426,Fei Wen,Enhanced pedestrian navigation on smartphones with VLP-assisted PDR integration,DeepMTL: Deep Learning Based Multiple Transmitter Localization,Texas A&M University,30.6108618,-96.35206061388457,Brazos County,College Station,Texas,United States
427,Hongli Xu,Dynamic Entanglement Routing Based on Stream Processing for Quantum Networks,Efficient Quantum Network Communication Using Optimized Entanglement Swapping Trees,Technology of China,31.8403891,117.2501941133908,,Shushan District,Anhui,China
428,Ramakrishnan Durairajan,A survey of reconfigurable optical networks,Near-optimal Multihop Scheduling in General Circuit-switched Networks,Data Science,51.6090791,-3.9831441009833535,Swansea,Swansea,Wales,United Kingdom
429,Xiaojie Fan,Optimized distribution of entanglement graph states in quantum networks,Quantum Sensor Network Algorithms for Transmitter Localization,Stony Brook University,40.9090809,-73.12055180275716,Suffolk County,,New York,United States
430,Yifei Min,Cooperative multi-agent reinforcement learning: asynchronous communication and linear function approximation,DeepMTL Pro: Deep Learning Based Multiple Transmitter Localization and Power Estimation,Data Science,51.6090791,-3.9831441009833535,Swansea,Swansea,Wales,United Kingdom
431,No_author_found,Adversarial attack on deep learning driven multiple transmitter localization,Efficient Localization of Multiple Intruders in Shared Spectrum System,No_author_found,,,,,,
432,Zhonghui Li,Efficient Routing Design Based on Entanglement Flow Loss Effect in Quantum Networks,Efficient Quantum Network Communication Using Optimized Entanglement Swapping Trees,University of Science,51.51459765,-0.11642199104621423,,London,England,United Kingdom
433,Mohammad Ghaderibaneh,DeepAlloc: Deep Learning Approach to Spectrum Allocation in Shared Spectrum Systems,DeepMTL: Deep Learning Based Multiple Transmitter Localization,Stony Brook University,40.9090809,-73.12055180275716,Suffolk County,,New York,United States
434,Ruidong Li,Redp: Reliable entanglement distribution protocol design for large-scale quantum networks,Efficient Quantum Network Communication Using Optimized Entanglement Swapping Trees,Kanazawa University,36.6575095,136.6473669,Kahoku County,,,Japan
435,Xiaojie Fan,Distribution and purification of entanglement states in quantum networks,Discrete Outcome Quantum Sensor Networks,Stony Brook University,40.9090809,-73.12055180275716,Suffolk County,,New York,United States
436,Sreejith Sreekumar,Distributed Quantum Hypothesis Testing under Zero-rate Communication Constraints,Quantum Sensor Network Algorithms for Transmitter Localization,Cornell University,42.4529076,-76.48008423030923,Tompkins County,City of Ithaca,New York,United States
437,Caitao Zhan,Transmitter Localization and Optimizing Initial State in Classical/Quantum Sensor Networks,DeepAlloc: Deep Learning Approach to Spectrum Allocation in Shared Spectrum Systems,Argonne National Lab,41.7177843,-87.9781814,DuPage County,,Illinois,United States
438,Nenghai Yu,Redp: Reliable entanglement distribution protocol design for large-scale quantum networks,Efficient Quantum Network Communication Using Optimized Entanglement Swapping Trees,Technology of China,31.8403891,117.2501941133908,,Shushan District,Anhui,China
439,Himanshu Gupta,Quantum sensor network algorithms for transmitter localization,Efficient Localization of Multiple Intruders in Shared Spectrum System,Stony Brook University,40.9090809,-73.12055180275716,Suffolk County,,New York,United States
440,Xiaojie Fan,Optimized distribution of entanglement graph states in quantum networks,Discrete Outcome Quantum Sensor Networks,Stony Brook University,40.9090809,-73.12055180275716,Suffolk County,,New York,United States
441,Shakti Singh,Multiple source localization in IoT: a conditional GAN and image-processing-based framework,DeepMTL Pro: Deep Learning Based Multiple Transmitter Localization and Power Estimation,Computer Engineering,35.64977625,-78.7043699462109,Wake County,Raleigh,North Carolina,United States
442,C.R. Ramakrishnan,Distribution and purification of entanglement states in quantum networks,Design and Simulation of the Adaptive Continuous Entanglement Generation Protocol,Stony Brook University,40.9090809,-73.12055180275716,Suffolk County,,New York,United States
444,John Calsamiglia,Identification of malfunctioning quantum devices,Discrete Outcome Quantum Sensor Networks,Universitat Autònoma de Barcelona,41.50155265,2.106260723986069,Vallès Occidental,,Catalonia,Spain
445,Haibin Ling,Task-agnostic detector for insertion-based backdoor attacks,DeepMTL Pro: Deep Learning Based Multiple Transmitter Localization and Power Estimation,Stony Brook University,40.9090809,-73.12055180275716,Suffolk County,,New York,United States
446,Yao-Jan Wu,A transfer learning framework for proactive ramp metering performance assessment,DeepMTL Pro: Deep Learning Based Multiple Transmitter Localization and Power Estimation,University of Arizona,32.235692799999995,-110.95174399590185,Pima County,Tucson,Arizona,United States
447,Caitao Zhan,Optimized distribution of entanglement graph states in quantum networks,Transmitter Localization and Optimizing Initial State in Classical/Quantum Sensor Networks,Argonne National Lab,41.7177843,-87.9781814,DuPage County,,Illinois,United States
448,Ranjani G Sundaram,Distributing quantum circuits using teleportations,Efficient Quantum Network Communication Using Optimized Entanglement Swapping Trees,Ph.D. Student,14.326290499999999,120.95780876734875,,Dasmariñas,Cavite,Philippines
449,Matthew Nance-Hall,A survey of reconfigurable optical networks,Near-optimal Multihop Scheduling in General Circuit-switched Networks,University of Oregon,44.04441965,-123.07176029673084,Lane County,Eugene,Oregon,United States
450,Ramakrishnan Durairajan,A survey of reconfigurable optical networks,Near-optimal Multihop Scheduling in General Circuit-switched Networks,University of Oregon,44.04441965,-123.07176029673084,Lane County,Eugene,Oregon,United States
451,Frost Mitchell,Utilizing Confidence in Localization Predictions for Improved Spectrum Management,DeepMTL Pro: Deep Learning Based Multiple Transmitter Localization and Power Estimation,University of Utah,40.762813699999995,-111.83687191368261,Salt Lake County,Salt Lake City,Utah,United States
452,Caitao Zhan,Simulation of Quantum Transduction Strategies for Quantum Networks,Efficient Quantum Network Communication Using Optimized Entanglement Swapping Trees,Argonne National Lab,41.7177843,-87.9781814,DuPage County,,Illinois,United States
453,Tianhao Wang,Cooperative multi-agent reinforcement learning: asynchronous communication and linear function approximation,DeepMTL: Deep Learning Based Multiple Transmitter Localization,Chicago,41.8755616,-87.6244212,Cook County,Chicago,Illinois,United States
454,Yuning Chen,OrchLoc: In-orchard localization via a single LoRa gateway and generative diffusion model-based fingerprinting,DeepMTL: Deep Learning Based Multiple Transmitter Localization,Merced,37.1641544,-120.7678602,Merced County,,California,United States
455,I. Chuang,The quantum trajectory sensing problem and its solution,Discrete Outcome Quantum Sensor Networks,MIT,42.3582529,-71.0966272383055,Middlesex County,Cambridge,Massachusetts,United States
456,Ivo Bizon Franco de Almeida,Blind transmitter localization using deep learning: A scalability study,DeepMTL: Deep Learning Based Multiple Transmitter Localization,Research associate,38.791182000000006,-89.9902208884049,Madison County,Edwardsville,Illinois,United States
457,Aditya Bhaskara,Learning-based techniques for transmitter localization: A case study on model robustness,DeepMTL Pro: Deep Learning Based Multiple Transmitter Localization and Power Estimation,University of Utah,40.762813699999995,-111.83687191368261,Salt Lake County,Salt Lake City,Utah,United States
458,Bogdan-Calin Ciobanu,Optimal quantum network decongestion strategies,Efficient Quantum Network Communication Using Optimized Entanglement Swapping Trees,University Politehnica of Bucharest,44.439367950000005,26.050603266436525,,Bucharest,,Romania
459,Himanshu Gupta,DeepAlloc: Deep Learning Approach to Spectrum Allocation in Shared Spectrum Systems,Efficient Localization of Multiple Intruders in Shared Spectrum System,Stony Brook University,40.9090809,-73.12055180275716,Suffolk County,,New York,United States
460,Shouqian Shi,Concurrent entanglement routing for quantum networks: Model and designs,Efficient Quantum Network Communication Using Optimized Entanglement Swapping Trees,Google,42.35092,-71.0783603,Suffolk County,Boston,Massachusetts,United States
461,Lu Pang,Task-agnostic detector for insertion-based backdoor attacks,DeepMTL Pro: Deep Learning Based Multiple Transmitter Localization and Power Estimation,Stony Brook University,40.9090809,-73.12055180275716,Suffolk County,,New York,United States
462,Neal Patwari,Localizing Spectrum Offenders Using Crowdsourcing,DeepMTL Pro: Deep Learning Based Multiple Transmitter Localization and Power Estimation,University of Utah,40.762813699999995,-111.83687191368261,Salt Lake County,Salt Lake City,Utah,United States
463,Mark Hillery,Optimizing initial state of detector sensors in quantum sensor networks,Discrete Outcome Quantum Sensor Networks,Hunter College,40.7683107,-73.9644059567109,New York County,New York,New York,United States
464,Amar Abane,Entanglement Routing in Quantum Networks: A Comprehensive Survey,Efficient Quantum Network Communication Using Optimized Entanglement Swapping Trees,Researcher,41.6567749,41.6398829,,Batumi,Autonomous Republic of Adjara,Georgia
466,Yuning Chen,OrchLoc: In-orchard localization via a single LoRa gateway and generative diffusion model-based fingerprinting,DeepMTL Pro: Deep Learning Based Multiple Transmitter Localization and Power Estimation,Merced,37.1641544,-120.7678602,Merced County,,California,United States
467,Quanquan Gu,Cooperative multi-agent reinforcement learning: asynchronous communication and linear function approximation,DeepMTL: Deep Learning Based Multiple Transmitter Localization,UCLA,34.070877749999994,-118.44685031405575,Los Angeles County,Los Angeles,California,United States
468,No_author_found,End-to-end entanglement establishment with lower latency in quantum networks,Efficient Quantum Network Communication Using Optimized Entanglement Swapping Trees,No_author_found,,,,,,
469,Jaya Prakash  Champati,Fast and efficient online selection of sensors for transmitter localization,Efficient Localization of Multiple Intruders in Shared Spectrum System,University of Victoria,48.46205995,-123.31141980604804,Capital Regional District,,British Columbia,Canada
470,Himanshu Gupta,Optimizing initial state of detector sensors in quantum sensor networks,Discrete Outcome Quantum Sensor Networks,Stony Brook University,40.9090809,-73.12055180275716,Suffolk County,,New York,United States
471,Caitao Zhan,Design and Simulation of the Adaptive Continuous Entanglement Generation Protocol,Discrete Outcome Quantum Sensor Networks,Argonne National Lab,41.7177843,-87.9781814,DuPage County,,Illinois,United States
472,Houze Liu,Research on the application of computer vision based on deep learning in autonomous driving technology,DeepMTL: Deep Learning Based Multiple Transmitter Localization,New York University,40.729205300000004,-73.99501481290962,New York County,New York,New York,United States
473,Han Guo, Probabilistic load forecasting for integrated energy systems using attentive quantile regression temporal convolutional network,DeepMTL: Deep Learning Based Multiple Transmitter Localization,SOUTHERN METHODIST UNIVERSITY,32.841801149999995,-96.78152810147064,Dallas County,,Texas,United States
474,Frost Mitchell,Reliable Wireless Localization Through Learning and Augmentation,DeepMTL: Deep Learning Based Multiple Transmitter Localization,University of Utah,40.762813699999995,-111.83687191368261,Salt Lake County,Salt Lake City,Utah,United States
475,C.R. Ramakrishnan,Distribution and purification of entanglement states in quantum networks,Discrete Outcome Quantum Sensor Networks,Stony Brook University,40.9090809,-73.12055180275716,Suffolk County,,New York,United States
476,Yifei Min,Statistical Theory and Algorithms for Sequential Decision Making,Optimizing Initial State of Detector Sensors in Quantum Sensor Networks,Yale University,41.25713055,-72.98966960152231,South Central Connecticut Planning Region,,Connecticut,United States
477,Fabrice VAUSSENAT,A Residual Neural Network Approach to Transmitter Localization,DeepMTL Pro: Deep Learning Based Multiple Transmitter Localization and Power Estimation,Montréal,45.5031824,-73.5698065,Urban agglomeration of Montreal,Montreal,Quebec,Canada
478,Ivan Stupia,Real-time CRLB based antenna selection in planar antenna arrays,Selection of Sensors for Efficient Transmitter Localization,Université Catholique de Louvain,50.8214382,4.3499855,Brussels-Capital,,,Belgium
479,Laura d'Avossa,Simulation of Quantum Transduction Strategies for Quantum Networks,Efficient Quantum Network Communication Using Optimized Entanglement Swapping Trees,Università degli Studi di Napoli Federico II,40.84773045,14.256620733613714,Naples,Naples,Campania,Italy
480,Jun Wu,Fineehr: Refine clinical note representations to improve mortality prediction,DeepMTL Pro: Deep Learning Based Multiple Transmitter Localization and Power Estimation,Georgia Institute of Technology,33.776094799999996,-84.3988076699857,Fulton County,Atlanta,Georgia,United States
481,Hang Zhao,Modeling Mouse-based Pointing and Steering Tasks for People with Parkinson's Disease,Efficient Localization of Multiple Intruders in Shared Spectrum System,Stony Brook University,40.9090809,-73.12055180275716,Suffolk County,,New York,United States
482,No_author_found,Time series modeling for heart rate prediction: From arima to transformers,DeepAlloc: Deep Learning Approach to Spectrum Allocation in Shared Spectrum Systems,No_author_found,,,,,,
483,Neal Patwari,Deep learning-based localization in limited data regimes,Efficient Localization of Multiple Intruders in Shared Spectrum System,University of Utah,40.762813699999995,-111.83687191368261,Salt Lake County,Salt Lake City,Utah,United States
484,Caitao Zhan,Quantum sensor network algorithms for transmitter localization,DeepMTL: Deep Learning Based Multiple Transmitter Localization,Argonne National Lab,41.7177843,-87.9781814,DuPage County,,Illinois,United States
485,Alhussein Abouzeid,Privacy-aware Deep Learning based Localization of Spectrum Violators,Efficient Localization of Multiple Intruders in Shared Spectrum System,RPI,42.7298969,-73.67966781998861,Rensselaer County,City of Troy,New York,United States
486,Michelle Victora,Entanglement purification on quantum networks,Efficient Quantum Network Communication Using Optimized Entanglement Swapping Trees,Urbana-Champaign,40.1117174,-88.207301,Champaign County,Urbana,Illinois,United States
487,Alexander Sanchez de la Cerda,Entanglement purification on quantum networks,Efficient Quantum Network Communication Using Optimized Entanglement Swapping Trees,Harvard University,42.365743249999994,-71.12221394207614,Suffolk County,Boston,Massachusetts,United States
488,Lei Yang,Understanding localization by a tailored GPT,DeepMTL: Deep Learning Based Multiple Transmitter Localization,The Hong Kong Polytechnic University,22.304486699999998,114.17969345847592,,Kowloon,Hong Kong,China
489,"Joaquin Chung, PhD",Design and Simulation of the Adaptive Continuous Entanglement Generation Protocol,Quantum Sensor Network Algorithms for Transmitter Localization,Argonne National Laboratory,41.70914095,-87.9786221366494,DuPage County,,Illinois,United States
490,Alexander Kolar,Quantum Advantage in Distributed Sensing with Noisy Quantum Networks,Optimized distribution of entanglement graph states in quantum networks,University of Chicago,41.79139685,-87.60084387193544,Cook County,Chicago,Illinois,United States
491,Weimin Lyu,Badclm: Backdoor attack in clinical language models for electronic health records,DeepMTL Pro: Deep Learning Based Multiple Transmitter Localization and Power Estimation,Stony Brook University,40.9090809,-73.12055180275716,Suffolk County,,New York,United States
492,Luís Bugalho,Entanglement routing based on fidelity curves for quantum photonics channels,Efficient Quantum Network Communication Using Optimized Entanglement Swapping Trees,Instituto Superior Técnico,38.7367455,-9.138391414374418,Lisbon,Lisbon,,Portugal
493,YUEXUN HUANG,Space-time Peer-to-Peer Distribution of Multi-party Entanglement for Any Quantum Network,Optimized distribution of entanglement graph states in quantum networks,The university of Chicago,41.79139685,-87.60084387193544,Cook County,Chicago,Illinois,United States
494,Yubo Luo,Scaling Up Task Execution on Resource-Constrained Systems,Optimizing Initial State of Detector Sensors in Quantum Sensor Networks,Chapel Hill,35.9131542,-79.05578,Orange County,Chapel Hill,North Carolina,United States
495,Alexander Kolar,Design and Simulation of the Adaptive Continuous Entanglement Generation Protocol,Optimized distribution of entanglement graph states in quantum networks,University of Chicago,41.79139685,-87.60084387193544,Cook County,Chicago,Illinois,United States
496,Caitao Zhan,Optimized distribution of entanglement graph states in quantum networks,Optimizing Initial State of Detector Sensors in Quantum Sensor Networks,Argonne National Lab,41.7177843,-87.9781814,DuPage County,,Illinois,United States
497,Yan Zhang,SpecKriging: GNN-based secure cooperative spectrum sensing,Selection of Sensors for Efficient Transmitter Localization,The University of Akron,41.07765945,-81.51755254835959,Summit County,Akron,Ohio,United States
498,Zhouyu Li,FENDI: Toward high-fidelity entanglement distribution in the quantum internet,Optimizing Initial State of Detector Sensors in Quantum Sensor Networks,North Carolina State University,35.77184965,-78.67408695452633,Wake County,Raleigh,North Carolina,United States
499,Kaiping Xue,Redp: Reliable entanglement distribution protocol design for large-scale quantum networks,Efficient Quantum Network Communication Using Optimized Entanglement Swapping Trees,Technology of China,31.8403891,117.2501941133908,,Shushan District,Anhui,China
500,Jianfeng Wang,"Performant, scalable, and efficient deployment of network function virtualization",Optimizing Initial State of Detector Sensors in Quantum Sensor Networks,Inc.,38.321089,106.38857247478668,Lingwu City,Yinchuan City,Ningxia,China
501,Feng Yan,FedCust: Offloading hyperparameter customization for federated learning,DeepMTL: Deep Learning Based Multiple Transmitter Localization,University of Houston,29.7207902,-95.34406271147566,Harris County,Houston,Texas,United States
502,Chao Chen,Badclm: Backdoor attack in clinical language models for electronic health records,DeepMTL Pro: Deep Learning Based Multiple Transmitter Localization and Power Estimation,Stony Brook University,40.9090809,-73.12055180275716,Suffolk County,,New York,United States
503,Shuai Zhou,Index Ambiguity Elimination of Overlapped Signals in Multi-Source Localization,DeepMTL Pro: Deep Learning Based Multiple Transmitter Localization and Power Estimation,Xidian University,34.1251589,108.82896528504287,,Chang'an District,Shaanxi,China
504,Caitao Zhan,DeepAlloc: Deep Learning Approach to Spectrum Allocation in Shared Spectrum Systems,Efficient Localization of Multiple Intruders in Shared Spectrum System,Argonne National Lab,41.7177843,-87.9781814,DuPage County,,Illinois,United States
505,Caitao Zhan,Transmitter Localization and Optimizing Initial State in Classical/Quantum Sensor Networks,Selection of Sensors for Efficient Transmitter Localization,Argonne National Lab,41.7177843,-87.9781814,DuPage County,,Illinois,United States
506,Zhonghui Li,Redp: Reliable entanglement distribution protocol design for large-scale quantum networks,Efficient Quantum Network Communication Using Optimized Entanglement Swapping Trees,Technology of China,31.8403891,117.2501941133908,,Shushan District,Anhui,China
507,"Joaquin Chung, PhD",Simulation of Entanglement-Enabled Connectivity in QLANs using SeQUeNCe,Discrete Outcome Quantum Sensor Networks,Argonne National Laboratory,41.70914095,-87.9786221366494,DuPage County,,Illinois,United States
508,Hailu Xu, Fast Meta Failure Recovery for Federated Meta-Learning [Vision Paper],DeepMTL Pro: Deep Learning Based Multiple Transmitter Localization and Power Estimation,"California State University, Long Beach",33.78177085,-118.11520014816904,Los Angeles County,Long Beach,California,United States
509,"Joaquin Chung, PhD",Design and Simulation of the Adaptive Continuous Entanglement Generation Protocol,Optimizing Initial State of Detector Sensors in Quantum Sensor Networks,Argonne National Laboratory,41.70914095,-87.9786221366494,DuPage County,,Illinois,United States
510,Sneha Kasera,Deep learning-based localization in limited data regimes,Efficient Localization of Multiple Intruders in Shared Spectrum System,University of Utah,40.762813699999995,-111.83687191368261,Salt Lake County,Salt Lake City,Utah,United States
511,Yu Li,Improving Inspector Training and Understanding Through Human-Centric Intelligence Methods for Drone-Assisted Bridge Inspection,DeepMTL Pro: Deep Learning Based Multiple Transmitter Localization and Power Estimation,Austin,30.2711286,-97.7436995,Travis County,Austin,Texas,United States
512,Ziheng Chen,[BOOK][B] Algorithms and Applications of Explainable Machine Learning,DeepAlloc: Deep Learning Approach to Spectrum Allocation in Shared Spectrum Systems,Stony Brook University,40.9090809,-73.12055180275716,Suffolk County,,New York,United States
513,Yubo Luo,Scaling Up Task Execution on Resource-Constrained Systems,Optimizing Initial State of Detector Sensors in Quantum Sensor Networks,University of North Carolina at Chapel Hill,35.90503535,-79.04775326525107,Orange County,Chapel Hill,North Carolina,United States
514,Xiaojie Fan,Distribution and purification of entanglement states in quantum networks,Optimized distribution of entanglement graph states in quantum networks,Stony Brook University,40.9090809,-73.12055180275716,Suffolk County,,New York,United States
515,Yifei Min,Statistical Theory and Algorithms for Sequential Decision Making,Discrete Outcome Quantum Sensor Networks,Data Science,51.6090791,-3.9831441009833535,Swansea,Swansea,Wales,United Kingdom
516,Ti Zhou,Data-driven Software-based Power Estimation for Embedded Devices,DeepMTL Pro: Deep Learning Based Multiple Transmitter Localization and Power Estimation,Stony Brook University,40.9090809,-73.12055180275716,Suffolk County,,New York,United States
517,Caitao Zhan,Optimized distribution of entanglement graph states in quantum networks,Discrete Outcome Quantum Sensor Networks,Argonne National Lab,41.7177843,-87.9781814,DuPage County,,Illinois,United States
518,Caitao Zhan,Optimized distribution of entanglement graph states in quantum networks,Quantum Sensor Network Algorithms for Transmitter Localization,Argonne National Lab,41.7177843,-87.9781814,DuPage County,,Illinois,United States
519,Matthew Nance-Hall,A survey of reconfigurable optical networks,Near-optimal Multihop Scheduling in General Circuit-switched Networks,Information Science,41.4823214,-72.4986995,Lower Connecticut River Valley Planning Region,,Connecticut,United States
520,Jan Neerbek,Providing energy-efficient features using human presence detection,Efficient Localization of Multiple Intruders in Shared Spectrum System,Roku,-9.4593746,147.0906457,,,Central,Papua New Guinea
521,Zhizun Xu, Advancements in Sensor Fusion for Underwater SLAM: A Review on Enhanced Navigation and Environmental Perception,Quantum Sensor Network Algorithms for Transmitter Localization,Newcastle University,54.98017505,-1.6146802127187847,Tyne and Wear,Newcastle upon Tyne,England,United Kingdom
522,Yi Sheng,Pristiq: A co-design framework for preserving data security of quantum learning in the cloud,Optimizing Initial State of Detector Sensors in Quantum Sensor Networks,George Mason University,38.83133325,-77.30798838879116,Fairfax County,,Virginia,United States
523,Arani Bhattacharya,Efficient localization of multiple intruders in shared spectrum system,Selection of Sensors for Efficient Transmitter Localization,IIIT-Delhi,28.54632595,77.27325504180786,Kalkaji Tehsil,New Delhi,Delhi,India
524,Aritrik Ghosh,A gaussian process based technique of efficient sensor selection for transmitter localization,Selection of Sensors for Efficient Transmitter Localization,University of Maryland College Park,38.990412449999994,-76.9438585924238,Prince George's County,College Park,Maryland,United States
525,Yu Li,Improving Inspector Training and Understanding Through Human-Centric Intelligence Methods for Drone-Assisted Bridge Inspection,DeepMTL Pro: Deep Learning Based Multiple Transmitter Localization and Power Estimation,University of Texas at Austin,30.2851494,-97.73393515146053,Travis County,Austin,Texas,United States
526,Allen Zang,Design and Simulation of the Adaptive Continuous Entanglement Generation Protocol,Optimized distribution of entanglement graph states in quantum networks,University of Chicago,41.79139685,-87.60084387193544,Cook County,Chicago,Illinois,United States
527,Zongxing Xie,Wireless Sensing for Home-Based Health Monitoring With Robustness and Scalability,Optimizing Initial State of Detector Sensors in Quantum Sensor Networks,Kennesaw State University,34.03834515,-84.58310525598046,Cobb County,,Georgia,United States
528,Rajkumar Kettimuthu,Simulation of Entanglement-Enabled Connectivity in QLANs using SeQUeNCe,Discrete Outcome Quantum Sensor Networks,Argonne National Laboratory,41.70914095,-87.9786221366494,DuPage County,,Illinois,United States
529,Yubo Luo,Scaling Up Task Execution on Resource-Constrained Systems,DeepMTL: Deep Learning Based Multiple Transmitter Localization,Chapel Hill,35.9131542,-79.05578,Orange County,Chapel Hill,North Carolina,United States
530,Abhiroop Bhattacharya,A Residual Neural Network Approach to Transmitter Localization,DeepMTL Pro: Deep Learning Based Multiple Transmitter Localization and Power Estimation,École de technologie supérieure,45.49451545,-73.5628554929944,Urban agglomeration of Montreal,Montreal,Quebec,Canada
531,Yan Zhang,Trustworthy IoT Sensing-as-a-Service,Efficient Localization of Multiple Intruders in Shared Spectrum System,The University of Akron,41.07765945,-81.51755254835959,Summit County,Akron,Ohio,United States
532,No_author_found,Intelligent Spectrum Coexistence in UAV-Enabled NextG Networks: Algorithms and Testing Framework,Efficient Localization of Multiple Intruders in Shared Spectrum System,No_author_found,,,,,,
533,Martin Suchara,Hardware-Software Co-design for Distributed Quantum Computing,Design and Simulation of the Adaptive Continuous Entanglement Generation Protocol,Microsoft Corporation,47.645695,-122.131803,King County,Redmond,Washington,USA
534,No_author_found,Time series modeling for heart rate prediction: From arima to transformers,DeepMTL: Deep Learning Based Multiple Transmitter Localization,No_author_found,,,,,,
535,Mark Hillery,Discrete-outcome sensor networks. II. Multiple detection events and grouping detectors,Quantum Sensor Network Algorithms for Transmitter Localization,Hunter College,40.7683107,-73.9644059567109,New York County,New York,New York,United States
536,No_author_found,INFORMATION ACCESS FOR INFRASTRUCTURALLY-CHALLENGED ENVIRONMENTS AND BEYOND THROUGH MUTUALLY AWARE SPECTRUM SHARING …,Selection of Sensors for Efficient Transmitter Localization,No_author_found,,,,,,
537,Yuxiang Yang,QuERLoc: Towards Next-Generation Localization with Quantum-Enhanced Ranging,Quantum Sensor Network Algorithms for Transmitter Localization,The University of Hong Kong,22.28269745,114.13845499995571,,Hong Kong Island,Hong Kong,China
538,Rajkumar Kettimuthu,Simulation of Entanglement-Enabled Connectivity in QLANs using SeQUeNCe,Efficient Quantum Network Communication Using Optimized Entanglement Swapping Trees,Argonne National Laboratory,41.70914095,-87.9786221366494,DuPage County,,Illinois,United States
539,Zhonghui Li,Redp: Reliable entanglement distribution protocol design for large-scale quantum networks,Efficient Quantum Network Communication Using Optimized Entanglement Swapping Trees,University of Science and Technology of China,31.839071949999997,117.26420747857581,,Baohe District,Anhui,China
540,Himanshu Gupta,Distribution and purification of entanglement states in quantum networks,Efficient Quantum Network Communication Using Optimized Entanglement Swapping Trees,Stony Brook University,40.9090809,-73.12055180275716,Suffolk County,,New York,United States
541,Alexander Kolar,Design and Simulation of the Adaptive Continuous Entanglement Generation Protocol,Optimizing Initial State of Detector Sensors in Quantum Sensor Networks,University of Chicago,41.79139685,-87.60084387193544,Cook County,Chicago,Illinois,United States
542,Kanad Basu (কণাদ বসু),Pristiq: A co-design framework for preserving data security of quantum learning in the cloud,Quantum Sensor Network Algorithms for Transmitter Localization,Dallas,32.7762719,-96.7968559,Dallas County,Dallas,Texas,United States
543,Jun-ichi Takada,"Maximum-likelihood-based location, orientation, transmitted power, and antenna beamwidth estimator utilizing the angle-of-arrival and received power for spectrum …",DeepMTL: Deep Learning Based Multiple Transmitter Localization,Society,24.9670243,67.1219726,,Karachi Division,Sindh,Pakistan
544,Xiaojie Fan,Distribution and purification of entanglement states in quantum networks,Optimizing Initial State of Detector Sensors in Quantum Sensor Networks,Stony Brook University,40.9090809,-73.12055180275716,Suffolk County,,New York,United States
545,Himanshu Gupta,Optimized distribution of entanglement graph states in quantum networks,Transmitter Localization and Optimizing Initial State in Classical/Quantum Sensor Networks,Stony Brook University,40.9090809,-73.12055180275716,Suffolk County,,New York,United States
546,Himanshu Gupta,Generation and distribution of ghz states in quantum networks,Efficient Quantum Network Communication Using Optimized Entanglement Swapping Trees,Stony Brook University,40.9090809,-73.12055180275716,Suffolk County,,New York,United States
547,Jiarui Zhang,Multi-User Entanglement Routing Design over Quantum Internets,Efficient Quantum Network Communication Using Optimized Entanglement Swapping Trees,Stony Brook University,40.9090809,-73.12055180275716,Suffolk County,,New York,United States
548,Jun-ichi Takada,"Maximum-likelihood-based location, orientation, transmitted power, and antenna beamwidth estimator utilizing the angle-of-arrival and received power for spectrum …",DeepMTL: Deep Learning Based Multiple Transmitter Localization,Tokyo Institute of Technology,35.605038050000005,139.6827406514703,,Meguro,,Japan
549,Yangming Zhao,Dynamic Entanglement Routing Based on Stream Processing for Quantum Networks,Efficient Quantum Network Communication Using Optimized Entanglement Swapping Trees,Nanjing University,32.0565957,118.77408832807794,,Gulou District,Jiangsu,China
551,Jianfeng Wang,"Performant, scalable, and efficient deployment of network function virtualization",Efficient Localization of Multiple Intruders in Shared Spectrum System,Inc.,38.321089,106.38857247478668,Lingwu City,Yinchuan City,Ningxia,China
552,Kaiping Xue,Redp: Reliable entanglement distribution protocol design for large-scale quantum networks,Efficient Quantum Network Communication Using Optimized Entanglement Swapping Trees,University of Science,51.51459765,-0.11642199104621423,,London,England,United Kingdom
553,Stefan Schmid,A survey of reconfigurable optical networks,Near-optimal Multihop Scheduling in General Circuit-switched Networks,Computer Science,40.80899825,-73.95987847188215,New York County,New York,New York,United States
554,Alexander Kolar,Design and Simulation of the Adaptive Continuous Entanglement Generation Protocol,Simulation of Quantum Transduction Strategies for Quantum Networks,University of Chicago,41.79139685,-87.60084387193544,Cook County,Chicago,Illinois,United States
555,Allen Zang,Quantum Advantage in Distributed Sensing with Noisy Quantum Networks,Optimized distribution of entanglement graph states in quantum networks,University of Chicago,41.79139685,-87.60084387193544,Cook County,Chicago,Illinois,United States
556,Lutong Chen,Redp: Reliable entanglement distribution protocol design for large-scale quantum networks,Efficient Quantum Network Communication Using Optimized Entanglement Swapping Trees,University of Science,51.51459765,-0.11642199104621423,,London,England,United Kingdom
557,Yubo Luo,Scaling Up Task Execution on Resource-Constrained Systems,DeepAlloc: Deep Learning Approach to Spectrum Allocation in Shared Spectrum Systems,Chapel Hill,35.9131542,-79.05578,Orange County,Chapel Hill,North Carolina,United States
558,Roberto Negrin,Efficient Multiparty Entanglement Distribution with DODAG-X Protocol,Optimized distribution of entanglement graph states in quantum networks,"University of California, Los Angeles",34.070877749999994,-118.44685031405575,Los Angeles County,Los Angeles,California,United States
559,Ramakrishnan Durairajan,A survey of reconfigurable optical networks,Near-optimal Multihop Scheduling in General Circuit-switched Networks,School of Computer,33.643225,-117.8419259,Orange County,Irvine,California,United States
560,Mohammad Ghaderibaneh,Generation and distribution of ghz states in quantum networks,Efficient Quantum Network Communication Using Optimized Entanglement Swapping Trees,Stony Brook University,40.9090809,-73.12055180275716,Suffolk County,,New York,United States
561,Zongxing Xie,Wireless Sensing for Home-Based Health Monitoring With Robustness and Scalability,Discrete Outcome Quantum Sensor Networks,Kennesaw State University,34.03834515,-84.58310525598046,Cobb County,,Georgia,United States
562,Kang Yang,OrchLoc: In-orchard localization via a single LoRa gateway and generative diffusion model-based fingerprinting,DeepMTL Pro: Deep Learning Based Multiple Transmitter Localization and Power Estimation,UCLA,34.070877749999994,-118.44685031405575,Los Angeles County,Los Angeles,California,United States
563,No_author_found,Topology-Driven Learning for Images: Applications and Acceleration,DeepMTL Pro: Deep Learning Based Multiple Transmitter Localization and Power Estimation,No_author_found,,,,,,
564,Jun-ichi Takada,"Maximum-likelihood-based location, orientation, transmitted power, and antenna beamwidth estimator utilizing the angle-of-arrival and received power for spectrum …",Efficient Localization of Multiple Intruders in Shared Spectrum System,Tokyo Institute of Technology,35.605038050000005,139.6827406514703,,Meguro,,Japan
565,Xiaojun Shang,Multi-User Entanglement Routing Design over Quantum Internets,Efficient Quantum Network Communication Using Optimized Entanglement Swapping Trees,Arlington,32.7355816,-97.1071186,Tarrant County,Arlington,Texas,United States
566,Francesco Mazza,Intra-QLAN Connectivity via Graph States: Beyond the Physical Topology,Simulation of Entanglement-Enabled Connectivity in QLANs using SeQUeNCe,Scuola Normale Superiore di Pisa,43.719686249999995,10.400398048187082,Pisa,Pisa,Tuscany,Italy
567,Yifei Min,Statistical Theory and Algorithms for Sequential Decision Making,Efficient Localization of Multiple Intruders in Shared Spectrum System,Yale University,41.25713055,-72.98966960152231,South Central Connecticut Planning Region,,Connecticut,United States
568,"Jianhui Wang, Professor, IEEE Fellow", Probabilistic load forecasting for integrated energy systems using attentive quantile regression temporal convolutional network,DeepMTL: Deep Learning Based Multiple Transmitter Localization,Southern Methodist University,32.841801149999995,-96.78152810147064,Dallas County,,Texas,United States
569,Himanshu Gupta,Distribution and purification of entanglement states in quantum networks,Optimizing Initial State of Detector Sensors in Quantum Sensor Networks,Stony Brook University,40.9090809,-73.12055180275716,Suffolk County,,New York,United States
570,Jinyang Li,Qumos: A framework for preserving security of quantum machine learning model,Quantum Sensor Network Algorithms for Transmitter Localization,George Mason University,38.83133325,-77.30798838879116,Fairfax County,,Virginia,United States
571,Caitao Zhan,Quantum sensor network algorithms for transmitter localization,DeepMTL Pro: Deep Learning Based Multiple Transmitter Localization and Power Estimation,Argonne National Lab,41.7177843,-87.9781814,DuPage County,,Illinois,United States
572,Jinglei Cheng (J.C.),Unleashing the potential of llms for quantum computing: A study in quantum architecture design,Discrete Outcome Quantum Sensor Networks,University of Pittsburgh,40.44415295,-79.96246095144505,Allegheny County,Pittsburgh,Pennsylvania,United States
573,Yubo Luo,Scaling Up Task Execution on Resource-Constrained Systems,Efficient Quantum Network Communication Using Optimized Entanglement Swapping Trees,University of North Carolina at Chapel Hill,35.90503535,-79.04775326525107,Orange County,Chapel Hill,North Carolina,United States
574,Yan Huang (黄艳）,Localization Through Deep Learning in New and Low Sampling Rate Environments,DeepMTL: Deep Learning Based Multiple Transmitter Localization,University of North Texas,33.2098926,-97.15147624977251,Denton County,Denton,Texas,United States
575,Caitao Zhan,Transmitter Localization and Optimizing Initial State in Classical/Quantum Sensor Networks,Optimized distribution of entanglement graph states in quantum networks,Argonne National Lab,41.7177843,-87.9781814,DuPage County,,Illinois,United States
576,Ravi Kishore Devarapalli,Locating multiple rumor sources in social networks using partial information of monitors,Quantum Sensor Network Algorithms for Transmitter Localization,NIT Silchar,24.75522195,92.78744845272317,Silchar,,Assam,India
